X,Y,Name,description,Longitude__X_,Latitude__Y_
113.97929,-28.92683,Abrolhos Islands,Longitude (X): 113.97929<br>Latitude (Y): -28.92683,"113.97929","-28.92683"
115.7512,-32.01783,Cables,Longitude (X): 115.7512<br>Latitude (Y): -32.01783,"115.7512","-32.01783"
115.75145,-32.00839,Cottosloe,Longitude (X): 115.75145<br>Latitude (Y): -32.00839,"115.75145","-32.00839"
114.98651,-33.97835,Gas Bay,Longitude (X): 114.98651<br>Latitude (Y): -33.97835,"114.98651","-33.97835"
113.53999,-23.76673,Gnaraloo,Longitude (X): 113.53999<br>Latitude (Y): -23.76673,"113.53999","-23.76673"
114.99162,-33.69444,Injidup Carpark,Longitude (X): 114.99162<br>Latitude (Y): -33.69444,"114.99162","-33.69444"
114.15068,-27.73414,Jake's Point,Longitude (X): 114.15068<br>Latitude (Y): -27.73414,"114.15068","-27.73414"
114.98259,-33.87952,Lefthanders,Longitude (X): 114.98259<br>Latitude (Y): -33.87952,"114.98259","-33.87952"
114.98321,-33.97652,Margaret River,Longitude (X): 114.98321<br>Latitude (Y): -33.97652,"114.98321","-33.97652"
114.9855,-33.85883,North Point,Longitude (X): 114.9855<br>Latitude (Y): -33.85883,"114.9855","-33.85883"
115.47573,-32.01595,Rottnest Island,Longitude (X): 115.47573<br>Latitude (Y): -32.01595,"115.47573","-32.01595"
115.75471,-31.89111,Scarborough,Longitude (X): 115.75471<br>Latitude (Y): -31.89111,"115.75471","-31.89111"
115.01672,-33.65871,Smiths Beach,Longitude (X): 115.01672<br>Latitude (Y): -33.65871,"115.01672","-33.65871"
114.976,-33.86409,South Point,Longitude (X): 114.976<br>Latitude (Y): -33.86409,"114.976","-33.86409"
115.01816,-33.65644,Supertubes,Longitude (X): 115.01816<br>Latitude (Y): -33.65644,"115.01816","-33.65644"
113.44102,-24.0312,The Bluff,Longitude (X): 113.44102<br>Latitude (Y): -24.0312,"113.44102","-24.0312"
113.48381,-23.88317,Tombstones,Longitude (X): 113.48381<br>Latitude (Y): -23.88317,"113.48381","-23.88317"
115.75144,-31.87621,Trigg Point,Longitude (X): 115.75144<br>Latitude (Y): -31.87621,"115.75144","-31.87621"
113.61334,-23.64858,Warroora Station,Longitude (X): 113.61334<br>Latitude (Y): -23.64858,"113.61334","-23.64858"
115.02513,-33.63854,Yallingup,Longitude (X): 115.02513<br>Latitude (Y): -33.63854,"115.02513","-33.63854"
133.1091,-32.1404,Cactus,Longitude (X): 133.1091<br>Latitude (Y): -32.1404,"133.1091","-32.1404"
138.7195,-35.5141,Middleton,Longitude (X): 138.7195<br>Latitude (Y): -35.5141,"138.7195","-35.5141"
137.7378,-35.8547,Pennington Bay,Longitude (X): 137.7378<br>Latitude (Y): -35.8547,"137.7378","-35.8547"
138.49912,-35.63433,Waitpinga,Longitude (X): 138.49912<br>Latitude (Y): -35.63433,"138.49912","-35.63433"
144.4677,-38.2864,13th Beach,Longitude (X): 144.4677<br>Latitude (Y): -38.2864,"144.4677","-38.2864"
144.28282,-38.36868,Bells Beach,Longitude (X): 144.28282<br>Latitude (Y): -38.36868,"144.28282","-38.36868"
145.14353,-38.50563,Cat Bay,Longitude (X): 145.14353<br>Latitude (Y): -38.50563,"145.14353","-38.50563"
145.26305,-38.50771,Express Point,Longitude (X): 145.26305<br>Latitude (Y): -38.50771,"145.26305","-38.50771"
144.85924,-38.44856,Gunnamatta,Longitude (X): 144.85924<br>Latitude (Y): -38.44856,"144.85924","-38.44856"
144.3067,-38.3472,Jan Juc,Longitude (X): 144.3067<br>Latitude (Y): -38.3472,"144.3067","-38.3472"
143.3735,-38.7602,Johanna,Longitude (X): 143.3735<br>Latitude (Y): -38.7602,"143.3735","-38.7602"
145.07075,-38.42461,Point Leo,Longitude (X): 145.07075<br>Latitude (Y): -38.42461,"145.07075","-38.42461"
142.9775,-38.6249,Two Mile/Easter Reef,Longitude (X): 142.9775<br>Latitude (Y): -38.6249,"142.9775","-38.6249"
144.28591,-38.3675,Winkipop,Longitude (X): 144.28591<br>Latitude (Y): -38.3675,"144.28591","-38.3675"
144.3155,-38.3458,Woolamai,Longitude (X): 144.3155<br>Latitude (Y): -38.3458,"144.3155","-38.3458"
153.45767,-28.09002,Burleigh Heads,Longitude (X): 153.45767<br>Latitude (Y): -28.09002,"153.45767","-28.09002"
153.13439,-26.80756,Caloundra,Longitude (X): 153.13439<br>Latitude (Y): -26.80756,"153.13439","-26.80756"
153.53526,-28.16562,Kirra,Longitude (X): 153.53526<br>Latitude (Y): -28.16562,"153.53526","-28.16562"
153.13643,-26.69599,Mooloolaba,Longitude (X): 153.13643<br>Latitude (Y): -26.69599,"153.13643","-26.69599"
153.08373,-26.38322,Noosa Heads,Longitude (X): 153.08373<br>Latitude (Y): -26.38322,"153.08373","-26.38322"
153.5311,-27.45428,North Stradbroke Island,Longitude (X): 153.5311<br>Latitude (Y): -27.45428,"153.5311","-27.45428"
153.54979,-28.16244,Snapper Rocks,Longitude (X): 153.54979<br>Latitude (Y): -28.16244,"153.54979","-28.16244"
153.54694,-28.16413,Superbank,Longitude (X): 153.54694<br>Latitude (Y): -28.16413,"153.54694","-28.16413"
153.48645,-28.12528,The Alley,Longitude (X): 153.48645<br>Latitude (Y): -28.12528,"153.48645","-28.12528"
153.36592,-29.48318,Angourie,Longitude (X): 153.36592<br>Latitude (Y): -29.48318,"153.36592","-29.48318"
151.33304,-33.63465,Avalon,Longitude (X): 151.33304<br>Latitude (Y): -33.63465,"151.33304","-33.63465"
150.68922,-35.17635,Black Rock,Longitude (X): 150.68922<br>Latitude (Y): -35.17635,"150.68922","-35.17635"
151.27663,-33.8912,Bondi,Longitude (X): 151.27663<br>Latitude (Y): -33.8912,"151.27663","-33.8912"
153.61503,-28.70435,Broken Head,Longitude (X): 153.61503<br>Latitude (Y): -28.70435,"153.61503","-28.70435"
153.57258,-28.33327,Cabarita,Longitude (X): 153.57258<br>Latitude (Y): -28.33327,"153.57258","-28.33327"
151.155,-34.05586,Cronulla,Longitude (X): 151.155<br>Latitude (Y): -34.05586,"151.155","-34.05586"
151.29549,-33.76982,Curl Curl,Longitude (X): 151.29549<br>Latitude (Y): -33.76982,"151.29549","-33.76982"
151.297667,-33.754903,Dee Why Point,Longitude (X): 151.297667<br>Latitude (Y): -33.754903,"151.297667","-33.754903"
153.55172,-28.16704,Duranbah,Longitude (X): 153.55172<br>Latitude (Y): -28.16704,"153.55172","-28.16704"
150.47561,-35.34583,Golf Course Reef,Longitude (X): 150.47561<br>Latitude (Y): -35.34583,"150.47561","-35.34583"
150.51537,-35.27237,Green Island,Longitude (X): 150.51537<br>Latitude (Y): -35.27237,"150.51537","-35.27237"
153.59557,-28.79941,Lennox Head,Longitude (X): 153.59557<br>Latitude (Y): -28.79941,"153.59557","-28.79941"
151.28781,-33.79411,Manly,Longitude (X): 151.28781<br>Latitude (Y): -33.79411,"151.28781","-33.79411"
151.25689,-33.94874,Maroubra,Longitude (X): 151.25689<br>Latitude (Y): -33.94874,"151.25689","-33.94874"
149.92016,-36.89486,Merimbula Bar,Longitude (X): 149.92016<br>Latitude (Y): -36.89486,"149.92016","-36.89486"
150.15062,-35.9041,Moruya Breakwall,Longitude (X): 150.15062<br>Latitude (Y): -35.9041,"150.15062","-35.9041"
151.32411,-33.65133,Newport,Longitude (X): 151.32411<br>Latitude (Y): -33.65133,"151.32411","-33.65133"
151.30506,-33.70603,North Narrabeen,Longitude (X): 151.30506<br>Latitude (Y): -33.70603,"151.30506","-33.70603"
153.5905,-28.8709,North Wall Ballina,Longitude (X): 153.5905<br>Latitude (Y): -28.8709,"153.5905","-28.8709"
149.91464,-36.94563,Pambula Rivermouth,Longitude (X): 149.91464<br>Latitude (Y): -36.94563,"149.91464","-36.94563"
153.3688,-29.44012,Pippies,Longitude (X): 153.3688<br>Latitude (Y): -29.44012,"153.3688","-29.44012"
150.92934,-34.33081,Sandon Point,Longitude (X): 150.92934<br>Latitude (Y): -34.33081,"150.92934","-34.33081"
153.5851,-28.877,South Wall Ballina,Longitude (X): 153.5851<br>Latitude (Y): -28.877,"153.5851","-28.877"
153.63255,-28.64469,Tallows,Longitude (X): 153.63255<br>Latitude (Y): -28.64469,"153.63255","-28.64469"
153.62815,-28.63783,The Pass,Longitude (X): 153.62815<br>Latitude (Y): -28.63783,"153.62815","-28.63783"
152.50863,-32.17285,Tuncurry Breakwall,Longitude (X): 152.50863<br>Latitude (Y): -32.17285,"152.50863","-32.17285"
150.48102,-35.36737,Ulladulla Bommie,Longitude (X): 150.48102<br>Latitude (Y): -35.36737,"150.48102","-35.36737"
150.8329,-34.7403,Werri Beach,Longitude (X): 150.8329<br>Latitude (Y): -34.7403,"150.8329","-34.7403"
151.33167,-33.60983,Whale Beach,Longitude (X): 151.33167<br>Latitude (Y): -33.60983,"151.33167","-33.60983"
150.87933,-34.54601,Windang Island,Longitude (X): 150.87933<br>Latitude (Y): -34.54601,"150.87933","-34.54601"
-43.191604,-22.98938,Arpoador,Longitude (X): -43.191604<br>Latitude (Y): -22.98938,"-43.191604","-22.98938"
-50.02555,-29.78506,Atlântida Pier,Longitude (X): -50.02555<br>Latitude (Y): -29.78506,"-50.02555","-29.78506"
-43.36621,-23.01113,Barra da Tijuca,Longitude (X): -43.36621<br>Latitude (Y): -23.01113,"-43.36621","-23.01113"
-48.8607,-28.6152,Camacho,Longitude (X): -48.8607<br>Latitude (Y): -28.6152,"-48.8607","-28.6152"
-49.9544,-29.6571,Capão da Canoa,Longitude (X): -49.9544<br>Latitude (Y): -29.6571,"-49.9544","-29.6571"
-48.82511,-28.60588,Cardoso,Longitude (X): -48.82511<br>Latitude (Y): -28.60588,"-48.82511","-28.60588"
-50.19122,-30.1481,Cidreira,Longitude (X): -50.19122<br>Latitude (Y): -30.1481,"-50.19122","-30.1481"
-32.43434,-3.84779,Cacimba do Padre,Longitude (X): -32.43434<br>Latitude (Y): -3.84779,"-32.43434","-3.84779"
-48.62783,-28.07722,Ferrugem,Longitude (X): -48.62783<br>Latitude (Y): -28.07722,"-48.62783","-28.07722"
-43.53309,-23.0496,Grumari,Longitude (X): -43.53309<br>Latitude (Y): -23.0496,"-43.53309","-23.0496"
-48.5829,-27.9009,Guarda do Embau,Longitude (X): -48.5829<br>Latitude (Y): -27.9009,"-48.5829","-27.9009"
-49.73672,-29.35871,Guarita,Longitude (X): -49.73672<br>Latitude (Y): -29.35871,"-49.73672","-29.35871"
-48.65038,-28.15206,Ibiraquera,Longitude (X): -48.65038<br>Latitude (Y): -28.15206,"-48.65038","-28.15206"
-49.70453,-29.34678,Ilha dos Lobos,Longitude (X): -49.70453<br>Latitude (Y): -29.34678,"-49.70453","-29.34678"
-43.20747,-22.98667,Ipanema,Longitude (X): -43.20747<br>Latitude (Y): -22.98667,"-43.20747","-22.98667"
-43.03349,-22.9744,Itacoatiara,Longitude (X): -43.03349<br>Latitude (Y): -22.9744,"-43.03349","-22.9744"
-49.75964,-29.38686,Itapeva,Longitude (X): -49.75964<br>Latitude (Y): -29.38686,"-49.75964","-29.38686"
-48.7124,-28.345,Itapirubá,Longitude (X): -48.7124<br>Latitude (Y): -28.345,"-48.7124","-28.345"
-49.01675,-28.7333,Laje da Jagua,Longitude (X): -49.01675<br>Latitude (Y): -28.7333,"-49.01675","-28.7333"
-43.22223,-22.98728,Leblon,Longitude (X): -43.22223<br>Latitude (Y): -22.98728,"-43.22223","-22.98728"
-49.3547,-28.9325,Morro dos Conventos,Longitude (X): -49.3547<br>Latitude (Y): -28.9325,"-49.3547","-28.9325"
-51.05973,0.000928,Pororoca,Longitude (X): -51.05973<br>Latitude (Y): 0.000928,"-51.05973","0.000928"
-49.73101,-29.34975,Praia da Cal,Longitude (X): -49.73101<br>Latitude (Y): -29.34975,"-49.73101","-29.34975"
-43.48881,-23.03414,Praia da Macumba,Longitude (X): -43.48881<br>Latitude (Y): -23.03414,"-43.48881","-23.03414"
-48.50053,-26.23027,Praia da Saudade,Longitude (X): -48.50053<br>Latitude (Y): -26.23027,"-48.50053","-26.23027"
-48.65796,-28.241,Praia da Vila,Longitude (X): -48.65796<br>Latitude (Y): -28.241,"-48.65796","-28.241"
-48.60873,-28.03897,Praia do Silveira,Longitude (X): -48.60873<br>Latitude (Y): -28.03897,"-48.60873","-28.03897"
-49.71391,-29.3264,Praia dos Molhes,Longitude (X): -49.71391<br>Latitude (Y): -29.3264,"-49.71391","-29.3264"
-38.98913,-14.30802,Prainha,Longitude (X): -38.98913<br>Latitude (Y): -14.30802,"-38.98913","-14.30802"
-49.72688,-29.34461,Prainha,Longitude (X): -49.72688<br>Latitude (Y): -29.34461,"-49.72688","-29.34461"
-49.51111,-29.08946,Rincão,Longitude (X): -49.51111<br>Latitude (Y): -29.08946,"-49.51111","-29.08946"
-48.64262,-28.13139,Rosa,Longitude (X): -48.64262<br>Latitude (Y): -28.13139,"-48.64262","-28.13139"
-43.26688,-22.99989,São Conrado,Longitude (X): -43.26688<br>Latitude (Y): -22.99989,"-43.26688","-22.99989"
-50.1312,-30.00477,Tramandaí,Longitude (X): -50.1312<br>Latitude (Y): -30.00477,"-50.1312","-30.00477"
-125.89423,49.11852,Chesterman Beach,Longitude (X): -125.89423<br>Latitude (Y): 49.11852,"-125.89423","49.11852"
-125.8737,49.10385,Cox Bay,Longitude (X): -125.8737<br>Latitude (Y): 49.10385,"-125.8737","49.10385"
-73.54293,45.50039,Habitat 67,Longitude (X): -73.54293<br>Latitude (Y): 45.50039,"-73.54293","45.50039"
-60.39161,46.64493,Ingonish Beach,Longitude (X): -60.39161<br>Latitude (Y): 46.64493,"-60.39161","46.64493"
-81.64089,44.17673,Kincardine,Longitude (X): -81.64089<br>Latitude (Y): 44.17673,"-81.64089","44.17673"
-63.34292,44.64396,Lawrencetown Beach,Longitude (X): -63.34292<br>Latitude (Y): 44.64396,"-63.34292","44.64396"
-125.8735,49.10394,Long Beach,Longitude (X): -125.8735<br>Latitude (Y): 49.10394,"-125.8735","49.10394"
-63.13876,44.69118,Martinique,Longitude (X): -63.13876<br>Latitude (Y): 44.69118,"-63.13876","44.69118"
-63.416053,44.63149,Minutes,Longitude (X): -63.416053<br>Latitude (Y): 44.63149,"-63.416053","44.63149"
-63.41738,44.61765,Osbourne,Longitude (X): -63.41738<br>Latitude (Y): 44.61765,"-63.41738","44.61765"
-63.25682,44.65699,Right Point,Longitude (X): -63.25682<br>Latitude (Y): 44.65699,"-63.25682","44.65699"
-125.90231,49.12885,Rosie's Bay,Longitude (X): -125.90231<br>Latitude (Y): 49.12885,"-125.90231","49.12885"
-80.0224,44.52221,Wasaga Beach,Longitude (X): -80.0224<br>Latitude (Y): 44.52221,"-80.0224","44.52221"
-125.6769,49.0217,Wickaninnish,Longitude (X): -125.6769<br>Latitude (Y): 49.0217,"-125.6769","49.0217"
-79.14532,42.87004,Wyldewood Beach,Longitude (X): -79.14532<br>Latitude (Y): 42.87004,"-79.14532","42.87004"
-70.3325,-18.4803,Arica,Longitude (X): -70.3325<br>Latitude (Y): -18.4803,"-70.3325","-18.4803"
-73.66552,-37.59498,El Faro,Longitude (X): -73.66552<br>Latitude (Y): -37.59498,"-73.66552","-37.59498"
-71.37734,-30.07209,El Muro,Longitude (X): -71.37734<br>Latitude (Y): -30.07209,"-71.37734","-30.07209"
-72.8159,-36.18083,La Rinconada,Longitude (X): -72.8159<br>Latitude (Y): -36.18083,"-72.8159","-36.18083"
-72.009,-34.3838,Pichilemu,Longitude (X): -72.009<br>Latitude (Y): -34.3838,"-72.009","-34.3838"
-71.47713,-30.22174,Playa Blanca,Longitude (X): -71.47713<br>Latitude (Y): -30.22174,"-71.47713","-30.22174"
-72.04051,-34.42697,Punta de Lobos,Longitude (X): -72.04051<br>Latitude (Y): -34.42697,"-72.04051","-34.42697"
-73.4843,-38.2445,Punta Quidico,Longitude (X): -73.4843<br>Latitude (Y): -38.2445,"-73.4843","-38.2445"
-85.7987,10.85389,Ollie's Point,Longitude (X): -85.7987<br>Latitude (Y): 10.85389,"-85.7987","10.85389"
-85.83921,10.31234,Playa Grande,Longitude (X): -85.83921<br>Latitude (Y): 10.31234,"-85.83921","10.31234"
-85.851642,10.287569,Playa Langosta,Longitude (X): -85.851642<br>Latitude (Y): 10.287569,"-85.851642","10.287569"
-85.67822,10.79619,Witches Rock,Longitude (X): -85.67822<br>Latitude (Y): 10.79619,"-85.67822","10.79619"
-85.84086,10.301843,Playa Tamarindo,Longitude (X): -85.84086<br>Latitude (Y): 10.301843,"-85.84086","10.301843"
-85.837362,10.227484,Playa Avellanes,Longitude (X): -85.837362<br>Latitude (Y): 10.227484,"-85.837362","10.227484"
-85.83033,10.195,Playa Negra,Longitude (X): -85.83033<br>Latitude (Y): 10.195,"-85.83033","10.195"
-85.81341,10.16848,Playa Junquillal,Longitude (X): -85.81341<br>Latitude (Y): 10.16848,"-85.81341","10.16848"
-85.44368,9.8624,Playa Camaronal,Longitude (X): -85.44368<br>Latitude (Y): 9.8624,"-85.44368","9.8624"
-85.66231,9.92962,Playa Guiones,Longitude (X): -85.66231<br>Latitude (Y): 9.92962,"-85.66231","9.92962"
-85.7688,10.06813,Playa Marbella,Longitude (X): -85.7688<br>Latitude (Y): 10.06813,"-85.7688","10.06813"
-85.68631,9.97617,Playa Nosara,Longitude (X): -85.68631<br>Latitude (Y): 9.97617,"-85.68631","9.97617"
-85.70216,9.99512,Playa Ostional,Longitude (X): -85.70216<br>Latitude (Y): 9.99512,"-85.70216","9.99512"
-85.67686,9.95902,Playa Pelada,Longitude (X): -85.67686<br>Latitude (Y): 9.95902,"-85.67686","9.95902"
-85.17731,9.64973,Playa Carmen,Longitude (X): -85.17731<br>Latitude (Y): 9.64973,"-85.17731","9.64973"
-85.15521,9.6293,Playa Santa Teresa,Longitude (X): -85.15521<br>Latitude (Y): 9.6293,"-85.15521","9.6293"
-84.28503,9.48238,Bejuco,Longitude (X): -84.28503<br>Latitude (Y): 9.48238,"-84.28503","9.48238"
-84.73784,9.96086,Boca Barranca,Longitude (X): -84.73784<br>Latitude (Y): 9.96086,"-84.73784","9.96086"
-84.72491,9.91314,Caldera,Longitude (X): -84.72491<br>Latitude (Y): 9.91314,"-84.72491","9.91314"
-84.48897,9.52942,Esterillos,Longitude (X): -84.48897<br>Latitude (Y): 9.52942,"-84.48897","9.52942"
-84.6722,9.6604,Playa Escondida,Longitude (X): -84.6722<br>Latitude (Y): 9.6604,"-84.6722","9.6604"
-84.60291,9.57458,Playa Hermosa,Longitude (X): -84.60291<br>Latitude (Y): 9.57458,"-84.60291","9.57458"
-84.63154,9.61426,Playa Jaco,Longitude (X): -84.63154<br>Latitude (Y): 9.61426,"-84.63154","9.61426"
-84.70536,9.87409,Playa Tivives,Longitude (X): -84.70536<br>Latitude (Y): 9.87409,"-84.70536","9.87409"
-84.6982,9.86574,Playa Valor,Longitude (X): -84.6982<br>Latitude (Y): 9.86574,"-84.6982","9.86574"
-84.6246,9.5909,Roca Loca,Longitude (X): -84.6246<br>Latitude (Y): 9.5909,"-84.6246","9.5909"
-84.2164,9.45784,Boca Damas,Longitude (X): -84.2164<br>Latitude (Y): 9.45784,"-84.2164","9.45784"
-84.17019,9.42544,Quepos,Longitude (X): -84.17019<br>Latitude (Y): 9.42544,"-84.17019","9.42544"
-84.10747,9.37404,Playa El Rey,Longitude (X): -84.10747<br>Latitude (Y): 9.37404,"-84.10747","9.37404"
-84.16199,9.39701,Playitas,Longitude (X): -84.16199<br>Latitude (Y): 9.39701,"-84.16199","9.39701"
-84.15469,9.39465,Manuel Antonio,Longitude (X): -84.15469<br>Latitude (Y): 9.39465,"-84.15469","9.39465"
-83.86547,9.2519,Playa Dominical,Longitude (X): -83.86547<br>Latitude (Y): 9.2519,"-83.86547","9.2519"
-83.27907,8.38834,Pan Dulce,Longitude (X): -83.27907<br>Latitude (Y): 8.38834,"-83.27907","8.38834"
-83.27953,8.39287,Playa Matapalo,Longitude (X): -83.27953<br>Latitude (Y): 8.39287,"-83.27953","8.39287"
-83.13846,8.39339,Pavones,Longitude (X): -83.13846<br>Latitude (Y): 8.39339,"-83.13846","8.39339"
-83.14124,8.36094,Punta Banco,Longitude (X): -83.14124<br>Latitude (Y): 8.36094,"-83.14124","8.36094"
-82.91353,8.05418,Punta Burica,Longitude (X): -82.91353<br>Latitude (Y): 8.05418,"-82.91353","8.05418"
-82.84999,9.74201,Playa Negra,Longitude (X): -82.84999<br>Latitude (Y): 9.74201,"-82.84999","9.74201"
-83.01063,9.99413,Isla Uvita,Longitude (X): -83.01063<br>Latitude (Y): 9.99413,"-83.01063","9.99413"
-82.73745,9.6514,Playa Cocles,Longitude (X): -82.73745<br>Latitude (Y): 9.6514,"-82.73745","9.6514"
-82.75385,9.66051,Salsa Brava,Longitude (X): -82.75385<br>Latitude (Y): 9.66051,"-82.75385","9.66051"
-84.8806,21.8237,Cabo de San Antonio,Longitude (X): -84.8806<br>Latitude (Y): 21.8237,"-84.8806","21.8237"
-78.49029,22.524879,Cayo Coco,Longitude (X): -78.49029<br>Latitude (Y): 22.524879,"-78.49029","22.524879"
-76.13057,21.14985,Gibara,Longitude (X): -76.13057<br>Latitude (Y): 21.14985,"-76.13057","21.14985"
-82.440055,23.112918,La Setenta,Longitude (X): -82.440055<br>Latitude (Y): 23.112918,"-82.440055","23.112918"
-75.85882,19.96669,Playa Mar Verde,Longitude (X): -75.85882<br>Latitude (Y): 19.96669,"-75.85882","19.96669"
-82.15431,23.1716,Playas del Este,Longitude (X): -82.15431<br>Latitude (Y): 23.1716,"-82.15431","23.1716"
-81.17154,23.19325,Sun Beach,Longitude (X): -81.17154<br>Latitude (Y): 23.19325,"-81.17154","23.19325"
-74.34483,20.29468,Yumuri,Longitude (X): -74.34483<br>Latitude (Y): 20.29468,"-74.34483","20.29468"
8.22938,56.78117,Agger,Longitude (X): 8.22938<br>Latitude (Y): 56.78117,"8.22938","56.78117"
8.4413,57.01079,Bunkers,Longitude (X): 8.4413<br>Latitude (Y): 57.01079,"8.4413","57.01079"
12.3155,56.12459,Gilleleje Havn,Longitude (X): 12.3155<br>Latitude (Y): 56.12459,"12.3155","56.12459"
8.61875,57.12597,Hanstholm,Longitude (X): 8.61875<br>Latitude (Y): 57.12597,"8.61875","57.12597"
12.46759,56.093219,Hornbaek,Longitude (X): 12.46759<br>Latitude (Y): 56.093219,"12.46759","56.093219"
8.11321,56.00187,Hvide Sande,Longitude (X): 8.11321<br>Latitude (Y): 56.00187,"8.11321","56.00187"
8.49392,57.04353,Klitmøller,Longitude (X): 8.49392<br>Latitude (Y): 57.04353,"8.49392","57.04353"
9.70945,57.373719,Loekken,Longitude (X): 9.70945<br>Latitude (Y): 57.373719,"9.70945","57.373719"
8.36623,56.95898,Vorupør,Longitude (X): 8.36623<br>Latitude (Y): 56.95898,"8.36623","56.95898"
-70.41026,19.75081,Bozo,Longitude (X): -70.41026<br>Latitude (Y): 19.75081,"-70.41026","19.75081"
-70.4416,19.77924,Coco Pipe,Longitude (X): -70.4416<br>Latitude (Y): 19.77924,"-70.4416","19.77924"
-70.45835,19.78482,Destroyers,Longitude (X): -70.45835<br>Latitude (Y): 19.78482,"-70.45835","19.78482"
-69.99351,19.67908,El Barco,Longitude (X): -69.99351<br>Latitude (Y): 19.67908,"-69.99351","19.67908"
-70.01011,18.42233,El Chinchorro,Longitude (X): -70.01011<br>Latitude (Y): 18.42233,"-70.01011","18.42233"
-70.4456,19.78065,Encuentro,Longitude (X): -70.4456<br>Latitude (Y): 19.78065,"-70.4456","19.78065"
-69.63248,18.43256,La Boya,Longitude (X): -69.63248<br>Latitude (Y): 18.43256,"-69.63248","18.43256"
-70.69519,19.80468,La Puntilla,Longitude (X): -70.69519<br>Latitude (Y): 19.80468,"-70.69519","19.80468"
-71.18133,17.96001,Los Patos de Barahona,Longitude (X): -71.18133<br>Latitude (Y): 17.96001,"-71.18133","17.96001"
-71.06438,18.14304,Playa Bahoruco,Longitude (X): -71.06438<br>Latitude (Y): 18.14304,"-71.06438","18.14304"
-70.01538,19.67811,Playa Grande,Longitude (X): -70.01538<br>Latitude (Y): 19.67811,"-70.01538","19.67811"
-70.00296,19.67874,Preciosa,Longitude (X): -70.00296<br>Latitude (Y): 19.67874,"-70.00296","19.67874"
-70.526774,19.75257,Sosua,Longitude (X): -70.526774<br>Latitude (Y): 19.75257,"-70.526774","19.75257"
-89.37997,13.49223,La Bocana,Longitude (X): -89.37997<br>Latitude (Y): 13.49223,"-89.37997","13.49223"
-89.351,13.48498,Cocal,Longitude (X): -89.351<br>Latitude (Y): 13.48498,"-89.351","13.48498"
-89.34939,13.48609,Conchalio,Longitude (X): -89.34939<br>Latitude (Y): 13.48609,"-89.34939","13.48609"
-89.47386,13.49887,K59,Longitude (X): -89.47386<br>Latitude (Y): 13.49887,"-89.47386","13.49887"
-89.59808,13.51133,Mizata,Longitude (X): -89.59808<br>Latitude (Y): 13.51133,"-89.59808","13.51133"
-89.42174,13.49401,Palmarcito,Longitude (X): -89.42174<br>Latitude (Y): 13.49401,"-89.42174","13.49401"
-89.32705,13.48049,Punta Roca,Longitude (X): -89.32705<br>Latitude (Y): 13.48049,"-89.32705","13.48049"
-89.35834,13.48593,San Blas,Longitude (X): -89.35834<br>Latitude (Y): 13.48593,"-89.35834","13.48593"
-89.39176,13.49265,Sunzal,Longitude (X): -89.39176<br>Latitude (Y): 13.49265,"-89.39176","13.49265"
-89.43995,13.49447,Zonte,Longitude (X): -89.43995<br>Latitude (Y): 13.49447,"-89.43995","13.49447"
-1.713,43.4173,Belharra,Longitude (X): -1.713<br>Latitude (Y): 43.4173,"-1.713","43.4173"
-1.55892,43.48473,Biarritz,Longitude (X): -1.55892<br>Latitude (Y): 43.48473,"-1.55892","43.48473"
1.82815,50.96193,Calais,Longitude (X): 1.82815<br>Latitude (Y): 50.96193,"1.82815","50.96193"
3.03586,42.693,Canet Plage,Longitude (X): 3.03586<br>Latitude (Y): 42.693,"3.03586","42.693"
1.590659,50.870552,Cap Gris-Nez,Longitude (X): 1.590659<br>Latitude (Y): 50.870552,"1.590659","50.870552"
-1.44555,43.64491,Capbreton,Longitude (X): -1.44555<br>Latitude (Y): 43.64491,"-1.44555","43.64491"
3.97159,43.54157,Carnon,Longitude (X): 3.97159<br>Latitude (Y): 43.54157,"3.97159","43.54157"
-1.567094,43.477821,Côte des Basques,Longitude (X): -1.567094<br>Latitude (Y): 43.477821,"-1.567094","43.477821"
6.58402,43.27416,Galiote,Longitude (X): 6.58402<br>Latitude (Y): 43.27416,"6.58402","43.27416"
3.11265,43.0981,Gruissan,Longitude (X): 3.11265<br>Latitude (Y): 43.0981,"3.11265","43.0981"
-1.61923,43.42275,Guethary,Longitude (X): -1.61923<br>Latitude (Y): 43.42275,"-1.61923","43.42275"
-1.42908,46.34316,L'Embarcadère,Longitude (X): -1.42908<br>Latitude (Y): 46.34316,"-1.42908","46.34316"
-1.44203,43.66621,La Gravière,Longitude (X): -1.44203<br>Latitude (Y): 43.66621,"-1.44203","43.66621"
-1.44215,43.66512,La Nord,Longitude (X): -1.44215<br>Latitude (Y): 43.66512,"-1.44215","43.66512"
-1.44391,43.66019,La Sud,Longitude (X): -1.44391<br>Latitude (Y): 43.66019,"-1.44391","43.66019"
-4.34724,47.83773,La Torche,Longitude (X): -4.34724<br>Latitude (Y): 47.83773,"-4.34724","47.83773"
-1.2024,45.00266,Lacanau,Longitude (X): -1.2024<br>Latitude (Y): 45.00266,"-1.2024","45.00266"
-1.628,43.41412,Lafitenia,Longitude (X): -1.628<br>Latitude (Y): 43.41412,"-1.628","43.41412"
-1.52547,43.5228,Les Cavaliers,Longitude (X): -1.52547<br>Latitude (Y): 43.5228,"-1.52547","43.5228"
-1.43871,43.68004,Les Culs Nuls,Longitude (X): -1.43871<br>Latitude (Y): 43.68004,"-1.43871","43.68004"
-1.53781,43.50566,Les Sables d'Or,Longitude (X): -1.53781<br>Latitude (Y): 43.50566,"-1.53781","43.50566"
-1.53885,43.50398,Marinella,Longitude (X): -1.53885<br>Latitude (Y): 43.50398,"-1.53885","43.50398"
-1.60252,43.43053,Parlementia,Longitude (X): -1.60252<br>Latitude (Y): 43.43053,"-1.60252","43.43053"
-4.34754,47.83299,Porzcarn,Longitude (X): -4.34754<br>Latitude (Y): 47.83299,"-4.34754","47.83299"
7.19894,43.65586,St. Laurent du Var,Longitude (X): 7.19894<br>Latitude (Y): 43.65586,"7.19894","43.65586"
0.30857,49.73975,Yport,Longitude (X): 0.30857<br>Latitude (Y): 49.73975,"0.30857","49.73975"
7.3756,53.7316,Baltrum,Longitude (X): 7.3756<br>Latitude (Y): 53.7316,"7.3756","53.7316"
6.6716,53.60172,Borkum,Longitude (X): 6.6716<br>Latitude (Y): 53.60172,"6.6716","53.60172"
6.994,53.68207,Juist,Longitude (X): 6.994<br>Latitude (Y): 53.68207,"6.994","53.68207"
7.4782,53.75315,Langeoog,Longitude (X): 7.4782<br>Latitude (Y): 53.75315,"7.4782","53.75315"
7.2762,53.7227,Norderney,Longitude (X): 7.2762<br>Latitude (Y): 53.7227,"7.2762","53.7227"
7.7433,53.78,Spiekeroog,Longitude (X): 7.7433<br>Latitude (Y): 53.78,"7.7433","53.78"
8.59427,54.31159,St. Peter-Ording,Longitude (X): 8.59427<br>Latitude (Y): 54.31159,"8.59427","54.31159"
8.29959,54.91238,Sylt,Longitude (X): 8.29959<br>Latitude (Y): 54.91238,"8.29959","54.91238"
7.90011,53.79381,Wangerooge,Longitude (X): 7.90011<br>Latitude (Y): 53.79381,"7.90011","53.79381"
20.48012,39.24029,Ammoudia,Longitude (X): 20.48012<br>Latitude (Y): 39.24029,"20.48012","39.24029"
21.64935,36.99085,Costa Navarino,Longitude (X): 21.64935<br>Latitude (Y): 36.99085,"21.64935","36.99085"
23.5806,35.49265,Falasarna,Longitude (X): 23.5806<br>Latitude (Y): 35.49265,"23.5806","35.49265"
20.39115,39.28522,Kastro Point,Longitude (X): 20.39115<br>Latitude (Y): 39.28522,"20.39115","39.28522"
25.14167,37.62977,Kolibithra,Longitude (X): 25.14167<br>Latitude (Y): 37.62977,"25.14167","37.62977"
21.58249,37.09139,Lagkouvardos,Longitude (X): 21.58249<br>Latitude (Y): 37.09139,"21.58249","37.09139"
24.00908,37.97741,Loutsa,Longitude (X): 24.00908<br>Latitude (Y): 37.97741,"24.00908","37.97741"
20.5787,39.14045,Ligia,Longitude (X): 20.5787<br>Latitude (Y): 39.14045,"20.5787","39.14045"
20.70152,39.00056,Mitikas,Longitude (X): 20.70152<br>Latitude (Y): 39.00056,"20.70152","39.00056"
25.55269,37.17912,Apollonas,Longitude (X): 25.55269<br>Latitude (Y): 37.17912,"25.55269","37.17912"
20.60197,38.63047,Porto Katsiki,Longitude (X): 20.60197<br>Latitude (Y): 38.63047,"20.60197","38.63047"
23.7786,37.81318,Vouliagmeni,Longitude (X): 23.7786<br>Latitude (Y): 37.81318,"23.7786","37.81318"
78.06723,8.37376,Alwars,Longitude (X): 78.06723<br>Latitude (Y): 8.37376,"78.06723","8.37376"
79.84876,11.98445,Auroville,Longitude (X): 79.84876<br>Latitude (Y): 11.98445,"79.84876","11.98445"
80.25459,12.78922,Big Rock,Longitude (X): 80.25459<br>Latitude (Y): 12.78922,"80.25459","12.78922"
72.4927,-7.3824,Diego Garcia Island,Longitude (X): 72.4927<br>Latitude (Y): -7.3824,"72.4927","-7.3824"
68.9705,22.2301,Dwarka,Longitude (X): 68.9705<br>Latitude (Y): 22.2301,"68.9705","22.2301"
74.3133,14.54635,Gokarna,Longitude (X): 74.3133<br>Latitude (Y): 14.54635,"74.3133","14.54635"
85.82405,19.79483,Puri,Longitude (X): 85.82405<br>Latitude (Y): 19.79483,"85.82405","19.79483"
77.55808,8.08979,Kanyakumari,Longitude (X): 77.55808<br>Latitude (Y): 8.08979,"77.55808","8.08979"
74.73793,13.22292,Kapu Beach,Longitude (X): 74.73793<br>Latitude (Y): 13.22292,"74.73793","13.22292"
76.97276,8.39868,Kovalam Beach,Longitude (X): 76.97276<br>Latitude (Y): 8.39868,"76.97276","8.39868"
75.534039,11.696933,Mahe,Longitude (X): 75.534039<br>Latitude (Y): 11.696933,"75.534039","11.696933"
74.48663,14.09338,Shivas,Longitude (X): 74.48663<br>Latitude (Y): 14.09338,"74.48663","14.09338"
80.1984,12.61552,Mahabalipuram Shore Temple,Longitude (X): 80.1984<br>Latitude (Y): 12.61552,"80.1984","12.61552"
74.64239,13.70508,Ten Thousand Peaks,Longitude (X): 74.64239<br>Latitude (Y): 13.70508,"74.64239","13.70508"
92.4276,10.5487,Kumari Point,Longitude (X): 92.4276<br>Latitude (Y): 10.5487,"92.4276","10.5487"
80.9125,15.7205,Krishna River,Longitude (X): 80.9125<br>Latitude (Y): 15.7205,"80.9125","15.7205"
78.12864,8.49482,Tiruchendur,Longitude (X): 78.12864<br>Latitude (Y): 8.49482,"78.12864","8.49482"
76.70359,8.73564,Varkala,Longitude (X): 76.70359<br>Latitude (Y): 8.73564,"76.70359","8.73564"
83.27624,17.65768,Vizag,Longitude (X): 83.27624<br>Latitude (Y): 17.65768,"83.27624","17.65768"
99.8392,-2.38675,Lances Left,Longitude (X): 99.8392<br>Latitude (Y): -2.38675,"99.8392","-2.38675"
99.85961,-2.37705,Lances Right,Longitude (X): 99.85961<br>Latitude (Y): -2.37705,"99.85961","-2.37705"
99.99324,-2.78752,Macaronis,Longitude (X): 99.99324<br>Latitude (Y): -2.78752,"99.99324","-2.78752"
99.5478,-2.0707,Telescopes,Longitude (X): 99.5478<br>Latitude (Y): -2.0707,"99.5478","-2.0707"
100.17314,-3.05515,Thunders,Longitude (X): 100.17314<br>Latitude (Y): -3.05515,"100.17314","-3.05515"
105.1221,-6.6208,Bombies,Longitude (X): 105.1221<br>Latitude (Y): -6.6208,"105.1221","-6.6208"
105.17454,-6.59909,Inside Lefts,Longitude (X): 105.17454<br>Latitude (Y): -6.59909,"105.17454","-6.59909"
105.14978,-6.59214,Inside Rights,Longitude (X): 105.14978<br>Latitude (Y): -6.59214,"105.14978","-6.59214"
105.17486,-6.65352,One Palm Point,Longitude (X): 105.17486<br>Latitude (Y): -6.65352,"105.17486","-6.65352"
105.12985,-6.61429,Panaitan Rights,Longitude (X): 105.12985<br>Latitude (Y): -6.61429,"105.12985","-6.61429"
106.245,-6.9378,Baya,Longitude (X): 106.245<br>Latitude (Y): -6.9378,"106.245","-6.9378"
106.47986,-6.96235,Cimaja,Longitude (X): 106.47986<br>Latitude (Y): -6.96235,"106.47986","-6.96235"
114.34,-8.73272,G-Land,Longitude (X): 114.34<br>Latitude (Y): -8.73272,"114.34","-8.73272"
106.3749,-7.277761,Ombak Tujuh,Longitude (X): 106.3749<br>Latitude (Y): -7.277761,"106.3749","-7.277761"
106.40128,-7.34728,Turtles,Longitude (X): 106.40128<br>Latitude (Y): -7.34728,"106.40128","-7.34728"
115.15983,-8.74519,Airport,Longitude (X): 115.15983<br>Latitude (Y): -8.74519,"115.15983","-8.74519"
115.12201,-8.79383,Balangan,Longitude (X): 115.12201<br>Latitude (Y): -8.79383,"115.12201","-8.79383"
115.1138,-8.80503,Bingin,Longitude (X): 115.1138<br>Latitude (Y): -8.80503,"115.1138","-8.80503"
115.13018,-8.65955,Canggu,Longitude (X): 115.13018<br>Latitude (Y): -8.65955,"115.13018","-8.65955"
115.1177,-8.79858,Dreamland,Longitude (X): 115.1177<br>Latitude (Y): -8.79858,"115.1177","-8.79858"
115.17064,-8.84876,Green Bowls,Longitude (X): 115.17064<br>Latitude (Y): -8.84876,"115.17064","-8.84876"
115.262696,-8.707318,Hyatt Reef,Longitude (X): 115.262696<br>Latitude (Y): -8.707318,"115.262696","-8.707318"
115.108735,-8.807577,Impossibles,Longitude (X): 115.108735<br>Latitude (Y): -8.807577,"115.108735","-8.807577"
115.338732,-8.598321,Keramas,Longitude (X): 115.338732<br>Latitude (Y): -8.598321,"115.338732","-8.598321"
115.16756,-8.7137,Kuta Beach,Longitude (X): 115.16756<br>Latitude (Y): -8.7137,"115.16756","-8.7137"
115.16358,-8.7331,Kuta Reef,Longitude (X): 115.16358<br>Latitude (Y): -8.7331,"115.16358","-8.7331"
114.8058,-8.421,Medewi,Longitude (X): 114.8058<br>Latitude (Y): -8.421,"114.8058","-8.421"
115.22598,-8.81625,Nusa Dua,Longitude (X): 115.22598<br>Latitude (Y): -8.81625,"115.22598","-8.81625"
115.093,-8.83909,Nyang Nyang,Longitude (X): 115.093<br>Latitude (Y): -8.83909,"115.093","-8.83909"
115.10083,-8.81042,Padang Padang,Longitude (X): 115.10083<br>Latitude (Y): -8.81042,"115.10083","-8.81042"
115.26483,-8.67733,Sanur,Longitude (X): 115.26483<br>Latitude (Y): -8.67733,"115.26483","-8.67733"
115.24143,-8.74074,Serangan,Longitude (X): 115.24143<br>Latitude (Y): -8.74074,"115.24143","-8.74074"
115.23057,-8.78885,Sri Lanka,Longitude (X): 115.23057<br>Latitude (Y): -8.78885,"115.23057","-8.78885"
115.096217,-8.813567,Uluwatu,Longitude (X): 115.096217<br>Latitude (Y): -8.813567,"115.096217","-8.813567"
116.03581,-8.86395,Belongas Bay,Longitude (X): 116.03581<br>Latitude (Y): -8.86395,"116.03581","-8.86395"
115.8265,-8.7499,Desert Point,Longitude (X): 115.8265<br>Latitude (Y): -8.7499,"115.8265","-8.7499"
116.44169,-8.90262,Ekas,Longitude (X): 116.44169<br>Latitude (Y): -8.90262,"116.44169","-8.90262"
116.34866,-8.92869,Grupuk,Longitude (X): 116.34866<br>Latitude (Y): -8.92869,"116.34866","-8.92869"
116.29205,-8.90039,Kuta,Longitude (X): 116.29205<br>Latitude (Y): -8.90039,"116.29205","-8.90039"
118.382443,-8.804351,Lakey Peak,Longitude (X): 118.382443<br>Latitude (Y): -8.804351,"118.382443","-8.804351"
118.3804,-8.80934,Periscopes,Longitude (X): 118.3804<br>Latitude (Y): -8.80934,"118.3804","-8.80934"
116.76512,-8.85813,Scar Reef,Longitude (X): 116.76512<br>Latitude (Y): -8.85813,"116.76512","-8.85813"
116.7422,-8.93286,Supersuck,Longitude (X): 116.7422<br>Latitude (Y): -8.93286,"116.7422","-8.93286"
116.72799,-8.97043,Yo-Yos,Longitude (X): 116.72799<br>Latitude (Y): -8.97043,"116.72799","-8.97043"
122.8219,-10.89077,T-Land,Longitude (X): 122.8219<br>Latitude (Y): -10.89077,"122.8219","-10.89077"
-10.03659,52.29855,Brandon Bay,Longitude (X): -10.03659<br>Latitude (Y): 52.29855,"-10.03659","52.29855"
-8.27754,54.482907,Bundoran,Longitude (X): -8.27754<br>Latitude (Y): 54.482907,"-8.27754","54.482907"
-9.4126,53.01643,Crab Island,Longitude (X): -9.4126<br>Latitude (Y): 53.01643,"-9.4126","53.01643"
-9.39915,53.01207,Doolin Point,Longitude (X): -9.39915<br>Latitude (Y): 53.01207,"-9.39915","53.01207"
-8.72901,54.26328,Dunmoran Strand,Longitude (X): -8.72901<br>Latitude (Y): 54.26328,"-8.72901","54.26328"
-8.96191,54.29426,Easkey Left,Longitude (X): -8.96191<br>Latitude (Y): 54.29426,"-8.96191","54.29426"
-8.94609,54.29451,Easkey Right,Longitude (X): -8.94609<br>Latitude (Y): 54.29451,"-8.94609","54.29451"
-9.9942,52.1427,Inch Reef,Longitude (X): -9.9942<br>Latitude (Y): 52.1427,"-9.9942","52.1427"
-10.1032,52.24465,Kilcummin,Longitude (X): -10.1032<br>Latitude (Y): 52.24465,"-10.1032","52.24465"
-9.34812,52.93359,Lahinch,Longitude (X): -9.34812<br>Latitude (Y): 52.93359,"-9.34812","52.93359"
-8.45413,54.47267,Mullaghmore Head,Longitude (X): -8.45413<br>Latitude (Y): 54.47267,"-8.45413","54.47267"
-8.21102,54.55477,Rossnowlagh,Longitude (X): -8.21102<br>Latitude (Y): 54.55477,"-8.21102","54.55477"
-8.53138,54.4121,Streedagh Strand,Longitude (X): -8.53138<br>Latitude (Y): 54.4121,"-8.53138","54.4121"
-8.2627,54.50434,Tullan Strand,Longitude (X): -8.2627<br>Latitude (Y): 54.50434,"-8.2627","54.50434"
8.14831,43.95048,Andora,Longitude (X): 8.14831<br>Latitude (Y): 43.95048,"8.14831","43.95048"
7.84623,43.82804,Arma di Taggia,Longitude (X): 7.84623<br>Latitude (Y): 43.82804,"7.84623","43.82804"
13.00651,41.30336,Artiglieria,Longitude (X): 13.00651<br>Latitude (Y): 41.30336,"13.00651","41.30336"
11.92912,42.03144,Banzai,Longitude (X): 11.92912<br>Latitude (Y): 42.03144,"11.92912","42.03144"
9.06993,44.377978,Bogliasco,Longitude (X): 9.06993<br>Latitude (Y): 44.377978,"9.06993","44.377978"
9.329935,44.31015,Entella,Longitude (X): 9.329935<br>Latitude (Y): 44.31015,"9.329935","44.31015"
11.91539,42.03951,Il Bunker,Longitude (X): 11.91539<br>Latitude (Y): 42.03951,"11.91539","42.03951"
11.95662,42.01676,Il Castello,Longitude (X): 11.95662<br>Latitude (Y): 42.01676,"11.95662","42.01676"
11.83576,42.02937,Il Porto,Longitude (X): 11.83576<br>Latitude (Y): 42.02937,"11.83576","42.02937"
12.66544,41.45673,La Chiesa,Longitude (X): 12.66544<br>Latitude (Y): 41.45673,"12.66544","41.45673"
11.83932,42.02896,La Roccetta,Longitude (X): 11.83932<br>Latitude (Y): 42.02896,"11.83932","42.02896"
9.60822,44.17014,Levanto,Longitude (X): 9.60822<br>Latitude (Y): 44.17014,"9.60822","44.17014"
11.807985,42.077069,L'Ideale,Longitude (X): 11.807985<br>Latitude (Y): 42.077069,"11.807985","42.077069"
12.22454,41.78172,Lido di Ostia,Longitude (X): 12.22454<br>Latitude (Y): 41.78172,"12.22454","41.78172"
12.60938,41.46524,Lido Garda,Longitude (X): 12.60938<br>Latitude (Y): 41.46524,"12.60938","41.46524"
12.62961,41.4447,Marinaretti,Longitude (X): 12.62961<br>Latitude (Y): 41.4447,"12.62961","41.4447"
9.482217,44.240733,Moneglia,Longitude (X): 9.482217<br>Latitude (Y): 44.240733,"9.482217","44.240733"
8.82494,44.42363,Multedo,Longitude (X): 8.82494<br>Latitude (Y): 44.42363,"8.82494","44.42363"
9.142167,44.3605,Recco,Longitude (X): 9.142167<br>Latitude (Y): 44.3605,"9.142167","44.3605"
11.91718,42.0378,Ristorante,Longitude (X): 11.91718<br>Latitude (Y): 42.0378,"11.91718","42.0378"
13.502436,41.22698,Santa Agostino,Longitude (X): 13.502436<br>Latitude (Y): 41.22698,"13.502436","41.22698"
11.851812,42.031251,Santa Marinella,Longitude (X): 11.851812<br>Latitude (Y): 42.031251,"11.851812","42.031251"
10.176625,42.736205,Seccheto,Longitude (X): 10.176625<br>Latitude (Y): 42.736205,"10.176625","42.736205"
13.56501,41.21003,Serapo,Longitude (X): 13.56501<br>Latitude (Y): 41.21003,"13.56501","41.21003"
8.576977,44.35845,Varazze,Longitude (X): 8.576977<br>Latitude (Y): 44.35845,"8.576977","44.35845"
136.41688,36.42022,Ataka,Longitude (X): 136.41688<br>Latitude (Y): 36.42022,"136.41688","36.42022"
140.82427,35.71394,Choshi,Longitude (X): 140.82427<br>Latitude (Y): 35.71394,"140.82427","35.71394"
141.8282,42.60288,Hokkaido,Longitude (X): 141.8282<br>Latitude (Y): 42.60288,"141.8282","42.60288"
140.6614,35.987072,Ibaraki,Longitude (X): 140.6614<br>Latitude (Y): 35.987072,"140.6614","35.987072"
134.28301,33.52439,Ikumi,Longitude (X): 134.28301<br>Latitude (Y): 33.52439,"134.28301","33.52439"
139.524701,35.30227,Inamuragasaki,Longitude (X): 139.524701<br>Latitude (Y): 35.30227,"139.524701","35.30227"
140.466,35.54244,Katagai,Longitude (X): 140.466<br>Latitude (Y): 35.54244,"140.466","35.54244"
138.216092,34.713947,Katahama,Longitude (X): 138.216092<br>Latitude (Y): 34.713947,"138.216092","34.713947"
141.01764,37.66032,Kitaizumi,Longitude (X): 141.01764<br>Latitude (Y): 37.66032,"141.01764","37.66032"
139.47024,35.31505,Kugenuma,Longitude (X): 139.47024<br>Latitude (Y): 35.31505,"139.47024","35.31505"
133.68977,33.53545,Monobegawakakou,Longitude (X): 133.68977<br>Latitude (Y): 33.53545,"133.68977","33.53545"
139.27556,34.36037,Niijima,Longitude (X): 139.27556<br>Latitude (Y): 34.36037,"139.27556","34.36037"
138.91955,34.654,Ohama,Longitude (X): 138.91955<br>Latitude (Y): 34.654,"138.91955","34.654"
138.1917,34.60121,Omaezaki,Longitude (X): 138.1917<br>Latitude (Y): 34.60121,"138.1917","34.60121"
130.49363,31.23052,Oniguchi,Longitude (X): 130.49363<br>Latitude (Y): 31.23052,"130.49363","31.23052"
134.20536,33.36913,Ozaki,Longitude (X): 134.20536<br>Latitude (Y): 33.36913,"134.20536","33.36913"
141.02157,38.26365,Sendai,Longitude (X): 141.02157<br>Latitude (Y): 38.26365,"141.02157","38.26365"
139.40133,35.31795,Shonan,Longitude (X): 139.40133<br>Latitude (Y): 35.31795,"139.40133","35.31795"
138.9335,34.66096,Tadado,Longitude (X): 138.9335<br>Latitude (Y): 34.66096,"138.9335","34.66096"
140.40578,35.3256,Taito,Longitude (X): 140.40578<br>Latitude (Y): 35.3256,"140.40578","35.3256"
73.09853,2.18484,Adonis,Longitude (X): 73.09853<br>Latitude (Y): 2.18484,"73.09853","2.18484"
73.44567,0.2845,Antiques,Longitude (X): 73.44567<br>Latitude (Y): 0.2845,"73.44567","0.2845"
73.14151,0.2137,Beacons,Longitude (X): 73.14151<br>Latitude (Y): 0.2137,"73.14151","0.2137"
73.53463,2.01688,Bedhuge,Longitude (X): 73.53463<br>Latitude (Y): 2.01688,"73.53463","2.01688"
73.28359,0.23172,Blue Bowls,Longitude (X): 73.28359<br>Latitude (Y): 0.23172,"73.28359","0.23172"
73.23131,0.19409,Castaways,Longitude (X): 73.23131<br>Latitude (Y): 0.19409,"73.23131","0.19409"
73.662745,4.374111,Chickens,Longitude (X): 73.662745<br>Latitude (Y): 4.374111,"73.662745","4.374111"
73.65537,4.37185,Coke's,Longitude (X): 73.65537<br>Latitude (Y): 4.37185,"73.65537","4.37185"
73.12872,2.1951,Finnimas,Longitude (X): 73.12872<br>Latitude (Y): 2.1951,"73.12872","2.1951"
73.3565,0.2581,Five Islands,Longitude (X): 73.3565<br>Latitude (Y): 0.2581,"73.3565","0.2581"
73.11003,-0.66051,Gaukendi Bridge,Longitude (X): 73.11003<br>Latitude (Y): -0.66051,"73.11003","-0.66051"
73.58419,4.31326,Honky's,Longitude (X): 73.58419<br>Latitude (Y): 4.31326,"73.58419","4.31326"
73.58494,2.13291,Isdhoo,Longitude (X): 73.58494<br>Latitude (Y): 2.13291,"73.58494","2.13291"
73.576383,4.307991,Jailbreaks,Longitude (X): 73.576383<br>Latitude (Y): 4.307991,"73.576383","4.307991"
73.506249,3.966952,Kate's,Longitude (X): 73.506249<br>Latitude (Y): 3.966952,"73.506249","3.966952"
73.3761,0.2657,Love Charms,Longitude (X): 73.3761<br>Latitude (Y): 0.2657,"73.3761","0.2657"
73.39185,1.81441,Mada's,Longitude (X): 73.39185<br>Latitude (Y): 1.81441,"73.39185","1.81441"
72.9291,2.2729,Malik's,Longitude (X): 72.9291<br>Latitude (Y): 2.2729,"72.9291","2.2729"
73.11801,2.193,Mikado,Longitude (X): 73.11801<br>Latitude (Y): 2.193,"73.11801","2.193"
73.215709,-0.660482,Muli,Longitude (X): 73.215709<br>Latitude (Y): -0.660482,"73.215709","-0.660482"
73.612086,4.34353,Ninjas/Piddlies,Longitude (X): 73.612086<br>Latitude (Y): 4.34353,"73.612086","4.34353"
73.59172,4.31635,Pasta Point,Longitude (X): 73.59172<br>Latitude (Y): 4.31635,"73.59172","4.31635"
73.47087,3.89703,Riptides,Longitude (X): 73.47087<br>Latitude (Y): 3.89703,"73.47087","3.89703"
73.19696,-0.67721,Shangri-la,Longitude (X): 73.19696<br>Latitude (Y): -0.67721,"73.19696","-0.67721"
73.58472,4.31347,Sultans,Longitude (X): 73.58472<br>Latitude (Y): 4.31347,"73.58472","4.31347"
73.45277,0.28502,Tiger Stripes,Longitude (X): 73.45277<br>Latitude (Y): 0.28502,"73.45277","0.28502"
73.35773,0.27481,Two Ways,Longitude (X): 73.35773<br>Latitude (Y): 0.27481,"73.35773","0.27481"
73.40609,1.79999,Yin Yang,Longitude (X): 73.40609<br>Latitude (Y): 1.79999,"73.40609","1.79999"
-99.90168,16.82125,Acapulco,Longitude (X): -99.90168<br>Latitude (Y): 16.82125,"-99.90168","16.82125"
-109.716117,23.024253,Acapulquito,Longitude (X): -109.716117<br>Latitude (Y): 23.024253,"-109.716117","23.024253"
-95.98712,19.06351,Anton Lizardo,Longitude (X): -95.98712<br>Latitude (Y): 19.06351,"-95.98712","19.06351"
-95.94949,15.83157,Barra de la Cruz,Longitude (X): -95.94949<br>Latitude (Y): 15.83157,"-95.94949","15.83157"
-101.451708,17.538284,Barra de Potosi,Longitude (X): -101.451708<br>Latitude (Y): 17.538284,"-101.451708","17.538284"
-105.33198,20.74912,Bucerias,Longitude (X): -105.33198<br>Latitude (Y): 20.74912,"-105.33198","20.74912"
-96.6251,15.6849,Chacahua,Longitude (X): -96.6251<br>Latitude (Y): 15.6849,"-96.6251","15.6849"
-97.01449,15.80614,Colotepec,Longitude (X): -97.01449<br>Latitude (Y): 15.80614,"-97.01449","15.80614"
-109.71446,23.02991,Costa Azul,Longitude (X): -109.71446<br>Latitude (Y): 23.02991,"-109.71446","23.02991"
-86.857581,20.403165,Cozumel,Longitude (X): -86.857581<br>Latitude (Y): 20.403165,"-86.857581","20.403165"
-102.16712,17.922046,El Faro,Longitude (X): -102.16712<br>Latitude (Y): 17.922046,"-102.16712","17.922046"
-101.61967,17.66346,Escolleras,Longitude (X): -101.61967<br>Latitude (Y): 17.66346,"-101.61967","17.66346"
-96.05027,15.78887,La Bocana,Longitude (X): -96.05027<br>Latitude (Y): 15.78887,"-96.05027","15.78887"
-95.778,15.87532,La Jolla,Longitude (X): -95.778<br>Latitude (Y): 15.87532,"-95.778","15.87532"
-105.44174,20.74838,La Lancha,Longitude (X): -105.44174<br>Latitude (Y): 20.74838,"-105.44174","20.74838"
-101.76951,17.83319,La Saladita,Longitude (X): -101.76951<br>Latitude (Y): 17.83319,"-101.76951","17.83319"
-103.558181,18.453959,La Ticla,Longitude (X): -103.558181<br>Latitude (Y): 18.453959,"-103.558181","18.453959"
-101.553812,17.62162,Las Gatas,Longitude (X): -101.553812<br>Latitude (Y): 17.62162,"-101.553812","17.62162"
-109.42327,23.38305,Los Frailes,Longitude (X): -109.42327<br>Latitude (Y): 23.38305,"-109.42327","23.38305"
-101.74503,17.79472,Manazillo Bay,Longitude (X): -101.74503<br>Latitude (Y): 17.79472,"-101.74503","17.79472"
-102.78978,18.08372,Neixpa,Longitude (X): -102.78978<br>Latitude (Y): 18.08372,"-102.78978","18.08372"
-109.47748,23.1749,Nine Palms,Longitude (X): -109.47748<br>Latitude (Y): 23.1749,"-109.47748","23.1749"
-105.29527,20.68951,Nuevo Vallarta,Longitude (X): -105.29527<br>Latitude (Y): 20.68951,"-105.29527","20.68951"
-103.96252,18.8569,Pascuales,Longitude (X): -103.96252<br>Latitude (Y): 18.8569,"-103.96252","18.8569"
-102.102275,17.980769,Petacalco,Longitude (X): -102.102275<br>Latitude (Y): 17.980769,"-102.102275","17.980769"
-100.6428,17.1309,Playa Boca Chica,Longitude (X): -100.6428<br>Latitude (Y): 17.1309,"-100.6428","17.1309"
-106.49163,23.30409,Playa Bruja,Longitude (X): -106.49163<br>Latitude (Y): 23.30409,"-106.49163","23.30409"
-105.28348,21.5284,Playa del Borrego,Longitude (X): -105.28348<br>Latitude (Y): 21.5284,"-105.28348","21.5284"
-96.00731,15.80769,Playa El Mojon,Longitude (X): -96.00731<br>Latitude (Y): 15.80769,"-96.00731","15.80769"
-101.647321,17.695843,Playa Linda,Longitude (X): -101.647321<br>Latitude (Y): 17.695843,"-101.647321","17.695843"
-97.04696,15.82993,Playa Zicatela,Longitude (X): -97.04696<br>Latitude (Y): 15.82993,"-97.04696","15.82993"
-97.0519,15.84515,Puerto Escondido,Longitude (X): -97.0519<br>Latitude (Y): 15.84515,"-97.0519","15.84515"
-92.42707,14.72011,Puerto Madero,Longitude (X): -92.42707<br>Latitude (Y): 14.72011,"-92.42707","14.72011"
-109.46902,23.55394,Punta Arena,Longitude (X): -109.46902<br>Latitude (Y): 23.55394,"-109.46902","23.55394"
-105.44479,20.747992,Punta Burros,Longitude (X): -105.44479<br>Latitude (Y): 20.747992,"-105.44479","20.747992"
-95.3728,16.0287,Punta Chipehua,Longitude (X): -95.3728<br>Latitude (Y): 16.0287,"-95.3728","16.0287"
-95.24983,16.13671,Punta Conejo,Longitude (X): -95.24983<br>Latitude (Y): 16.13671,"-95.24983","16.13671"
-99.82531,16.79102,Revolcadero,Longitude (X): -99.82531<br>Latitude (Y): 16.79102,"-99.82531","16.79102"
-96.30391,15.68639,Rio de Coyula,Longitude (X): -96.30391<br>Latitude (Y): 15.68639,"-96.30391","15.68639"
-95.24962,16.13678,Salina Cruz,Longitude (X): -95.24962<br>Latitude (Y): 16.13678,"-95.24962","16.13678"
-96.24524,15.68496,San Augustin,Longitude (X): -96.24524<br>Latitude (Y): 15.68496,"-96.24524","15.68496"
-105.41658,20.90114,San Pancho,Longitude (X): -105.41658<br>Latitude (Y): 20.90114,"-105.41658","20.90114"
-110.20278,23.36769,San Pedrito,Longitude (X): -110.20278<br>Latitude (Y): 23.36769,"-110.20278","23.36769"
-105.439871,20.871862,Sayulita,Longitude (X): -105.439871<br>Latitude (Y): 20.871862,"-105.439871","20.871862"
-109.52792,23.11954,Shipwrecks,Longitude (X): -109.52792<br>Latitude (Y): 23.11954,"-109.52792","23.11954"
-101.86601,17.91181,The Ranch,Longitude (X): -101.86601<br>Latitude (Y): 17.91181,"-101.86601","17.91181"
-116.80849,31.81283,Todos Santos,Longitude (X): -116.80849<br>Latitude (Y): 31.81283,"-116.80849","31.81283"
-101.72517,17.78114,Troncones,Longitude (X): -101.72517<br>Latitude (Y): 17.78114,"-101.72517","17.78114"
-96.51989,15.66336,Zipolite,Longitude (X): -96.51989<br>Latitude (Y): 15.66336,"-96.51989","15.66336"
-9.60411,30.41186,Agadir,Longitude (X): -9.60411<br>Latitude (Y): 30.41186,"-9.60411","30.41186"
-9.72474,30.54603,Anchor Point,Longitude (X): -9.72474<br>Latitude (Y): 30.54603,"-9.72474","30.54603"
-9.67912,30.50073,Banana Beach,Longitude (X): -9.67912<br>Latitude (Y): 30.50073,"-9.67912","30.50073"
-9.875827,30.625098,Boilers,Longitude (X): -9.875827<br>Latitude (Y): 30.625098,"-9.875827","30.625098"
-9.83135,31.38571,Cap Sim,Longitude (X): -9.83135<br>Latitude (Y): 31.38571,"-9.83135","31.38571"
-9.8633,29.77887,Desert Point,Longitude (X): -9.8633<br>Latitude (Y): 29.77887,"-9.8633","29.77887"
-9.68667,30.50652,Devil's Rock,Longitude (X): -9.68667<br>Latitude (Y): 30.50652,"-9.68667","30.50652"
-9.86138,30.62378,Dracula's,Longitude (X): -9.86138<br>Latitude (Y): 30.62378,"-9.86138","30.62378"
-8.49589,33.24863,El Jadida,Longitude (X): -8.49589<br>Latitude (Y): 33.24863,"-8.49589","33.24863"
-9.76374,31.49812,Essaouira,Longitude (X): -9.76374<br>Latitude (Y): 31.49812,"-9.76374","31.49812"
-9.7103,30.544656,Hash Point,Longitude (X): -9.7103<br>Latitude (Y): 30.544656,"-9.7103","30.544656"
-9.82175,30.83789,Imsouane,Longitude (X): -9.82175<br>Latitude (Y): 30.83789,"-9.82175","30.83789"
-9.73837,30.55158,Killer Point,Longitude (X): -9.73837<br>Latitude (Y): 30.55158,"-9.73837","30.55158"
-9.7304,30.54855,La Source,Longitude (X): -9.7304<br>Latitude (Y): 30.54855,"-9.7304","30.54855"
-10.1166,29.44662,Legzira,Longitude (X): -10.1166<br>Latitude (Y): 29.44662,"-10.1166","29.44662"
-10.0385,29.5921,Mirleft,Longitude (X): -10.0385<br>Latitude (Y): 29.5921,"-10.0385","29.5921"
-9.03913,32.74145,Oualidia,Longitude (X): -9.03913<br>Latitude (Y): 32.74145,"-9.03913","32.74145"
-8.55398,33.23004,Sidi Bouzid,Longitude (X): -8.55398<br>Latitude (Y): 33.23004,"-8.55398","33.23004"
-10.17643,29.38315,Sidi Ifni,Longitude (X): -10.17643<br>Latitude (Y): 29.38315,"-10.17643","29.38315"
-9.79822,31.35353,Sidi Kaouki,Longitude (X): -9.79822<br>Latitude (Y): 31.35353,"-9.79822","31.35353"
-9.83073,29.80937,Sidi Moussa d'Aglou,Longitude (X): -9.83073<br>Latitude (Y): 29.80937,"-9.83073","29.80937"
-9.66726,30.08811,Sidi R'bat,Longitude (X): -9.66726<br>Latitude (Y): 30.08811,"-9.66726","30.08811"
-9.6846,30.50321,Spiders,Longitude (X): -9.6846<br>Latitude (Y): 30.50321,"-9.6846","30.50321"
-9.82303,31.09642,Tafedna,Longitude (X): -9.82303<br>Latitude (Y): 31.09642,"-9.82303","31.09642"
-9.70782,30.54293,Taghazout,Longitude (X): -9.70782<br>Latitude (Y): 30.54293,"-9.70782","30.54293"
-9.85832,30.71068,Tamri,Longitude (X): -9.85832<br>Latitude (Y): 30.71068,"-9.85832","30.71068"
-9.64219,30.2025,Tifnit,Longitude (X): -9.64219<br>Latitude (Y): 30.2025,"-9.64219","30.2025"
170.71079,-45.77623,Aramoana,Longitude (X): 170.71079<br>Latitude (Y): -45.77623,"170.71079","-45.77623"
171.19296,-42.44216,Blaketown Wedge,Longitude (X): 171.19296<br>Latitude (Y): -42.44216,"171.19296","-42.44216"
174.4252,-36.8271,Bogan River,Longitude (X): 174.4252<br>Latitude (Y): -36.8271,"174.4252","-36.8271"
171.19542,-42.43883,Cobden,Longitude (X): 171.19542<br>Latitude (Y): -42.43883,"171.19542","-42.43883"
174.09767,-39.04537,Fitzroy Beach,Longitude (X): 174.09767<br>Latitude (Y): -39.04537,"174.09767","-39.04537"
168.9924,-43.866,Haast Beach,Longitude (X): 168.9924<br>Latitude (Y): -43.866,"168.9924","-43.866"
173.10799,-43.77562,Hickory Bay,Longitude (X): 173.10799<br>Latitude (Y): -43.77562,"173.10799","-43.77562"
172.05814,-41.39073,Little Wanganui,Longitude (X): 172.05814<br>Latitude (Y): -41.39073,"172.05814","-41.39073"
173.74854,-42.32086,Mangamanu,Longitude (X): 173.74854<br>Latitude (Y): -42.32086,"173.74854","-42.32086"
173.07895,-43.06343,Motunau Beach Island,Longitude (X): 173.07895<br>Latitude (Y): -43.06343,"173.07895","-43.06343"
176.1912,-37.63954,Mount Maunganui,Longitude (X): 176.1912<br>Latitude (Y): -37.63954,"176.1912","-37.63954"
173.95576,-39.1105,Oakura Beach,Longitude (X): 173.95576<br>Latitude (Y): -39.1105,"173.95576","-39.1105"
174.46602,-36.95188,Piha,Longitude (X): 174.46602<br>Latitude (Y): -36.95188,"174.46602","-36.95188"
174.82488,-37.82124,Raglan,Longitude (X): 174.82488<br>Latitude (Y): -37.82124,"174.82488","-37.82124"
173.1098,-35.1714,Shipwreck Bay,Longitude (X): 173.1098<br>Latitude (Y): -35.1714,"173.1098","-35.1714"
173.77849,-39.22005,Stent Road,Longitude (X): 173.77849<br>Latitude (Y): -39.22005,"173.77849","-39.22005"
173.06144,-43.69349,Stoney Beach,Longitude (X): 173.06144<br>Latitude (Y): -43.69349,"173.06144","-43.69349"
173.98449,-35.12318,Taronui Bay,Longitude (X): 173.98449<br>Latitude (Y): -35.12318,"173.98449","-35.12318"
178.049567,-38.70663,The Island,Longitude (X): 178.049567<br>Latitude (Y): -38.70663,"178.049567","-38.70663"
178.07623,-38.68414,Wainui Beach,Longitude (X): 178.07623<br>Latitude (Y): -38.68414,"178.07623","-38.68414"
171.58646,-41.72955,Westport Breakwater,Longitude (X): 171.58646<br>Latitude (Y): -41.72955,"171.58646","-41.72955"
175.62745,-36.7187,Whangapoua Beach,Longitude (X): 175.62745<br>Latitude (Y): -36.7187,"175.62745","-36.7187"
-86.77279,12.19837,Puerto Sandino,Longitude (X): -86.77279<br>Latitude (Y): 12.19837,"-86.77279","12.19837"
-86.76285,12.16923,Punta Miramar,Longitude (X): -86.76285<br>Latitude (Y): 12.16923,"-86.76285","12.16923"
-86.70514,12.05251,El Transito,Longitude (X): -86.70514<br>Latitude (Y): 12.05251,"-86.70514","12.05251"
-86.10181,11.45191,Popoyo,Longitude (X): -86.10181<br>Latitude (Y): 11.45191,"-86.10181","11.45191"
-86.08732,11.44266,Santana,Longitude (X): -86.08732<br>Latitude (Y): 11.44266,"-86.08732","11.44266"
-86.056,11.4098,Panga Drops,Longitude (X): -86.056<br>Latitude (Y): 11.4098,"-86.056","11.4098"
-86.0483,11.40609,Playa Colorado,Longitude (X): -86.0483<br>Latitude (Y): 11.40609,"-86.0483","11.40609"
-86.0092,11.3701,Manzanillo,Longitude (X): -86.0092<br>Latitude (Y): 11.3701,"-86.0092","11.3701"
5.5487,58.79941,Bore,Longitude (X): 5.5487<br>Latitude (Y): 58.79941,"5.5487","58.79941"
5.77121,58.52907,Brusand,Longitude (X): 5.77121<br>Latitude (Y): 58.52907,"5.77121","58.52907"
5.5518,58.83176,Byberg,Longitude (X): 5.5518<br>Latitude (Y): 58.83176,"5.5518","58.83176"
5.11413,62.16624,Ervik,Longitude (X): 5.11413<br>Latitude (Y): 62.16624,"5.11413","62.16624"
5.562,58.8432,Hellestø,Longitude (X): 5.562<br>Latitude (Y): 58.8432,"5.562","58.8432"
5.1646,62.12585,Hoddevika,Longitude (X): 5.1646<br>Latitude (Y): 62.12585,"5.1646","62.12585"
4.82684,61.68178,Hovden,Longitude (X): 4.82684<br>Latitude (Y): 61.68178,"4.82684","61.68178"
7.1526,62.98352,Hustadvika,Longitude (X): 7.1526<br>Latitude (Y): 62.98352,"7.1526","62.98352"
5.18101,59.19956,Karmøy,Longitude (X): 5.18101<br>Latitude (Y): 59.19956,"5.18101","59.19956"
6.16822,62.67181,Kraakevika,Longitude (X): 6.16822<br>Latitude (Y): 62.67181,"6.16822","62.67181"
5.6725,58.55001,Kvassheim,Longitude (X): 5.6725<br>Latitude (Y): 58.55001,"5.6725","58.55001"
6.60008,58.08527,Lista,Longitude (X): 6.60008<br>Latitude (Y): 58.08527,"6.60008","58.08527"
14.47848,67.32314,Lop Camping,Longitude (X): 14.47848<br>Latitude (Y): 67.32314,"14.47848","67.32314"
5.51631,58.7303,Orre,Longitude (X): 5.51631<br>Latitude (Y): 58.7303,"5.51631","58.7303"
5.50093,58.7635,Pigsty,Longitude (X): 5.50093<br>Latitude (Y): 58.7635,"5.50093","58.7635"
5.5507,58.69233,Refsnes,Longitude (X): 5.5507<br>Latitude (Y): 58.69233,"5.5507","58.69233"
5.5169,58.77196,Reve Havn,Longitude (X): 5.5169<br>Latitude (Y): 58.77196,"5.5169","58.77196"
9.8538,58.96451,Saltstein,Longitude (X): 9.8538<br>Latitude (Y): 58.96451,"9.8538","58.96451"
14.3528,67.20882,Seinesodden,Longitude (X): 14.3528<br>Latitude (Y): 67.20882,"14.3528","67.20882"
5.54558,58.81344,Sele,Longitude (X): 5.54558<br>Latitude (Y): 58.81344,"5.54558","58.81344"
30.4717,70.20831,Skallelv,Longitude (X): 30.4717<br>Latitude (Y): 70.20831,"30.4717","70.20831"
13.71658,66.94828,Storvika,Longitude (X): 13.71658<br>Latitude (Y): 66.94828,"13.71658","66.94828"
13.583,68.27039,Unstad,Longitude (X): 13.583<br>Latitude (Y): 68.27039,"13.583","68.27039"
-82.227814,9.354482,Careneros,Longitude (X): -82.227814<br>Latitude (Y): 9.354482,"-82.227814","9.354482"
-80.14433,7.424,Ciruelo,Longitude (X): -80.14433<br>Latitude (Y): 7.424,"-80.14433","7.424"
-79.12938,8.94847,Isla Chepillo,Longitude (X): -79.12938<br>Latitude (Y): 8.94847,"-79.12938","8.94847"
-79.55795,9.63498,Isla Grande,Longitude (X): -79.55795<br>Latitude (Y): 9.63498,"-79.55795","9.63498"
-82.57166,8.3014,La Barqueta,Longitude (X): -82.57166<br>Latitude (Y): 8.3014,"-82.57166","8.3014"
-81.81512,8.08277,Nestles,Longitude (X): -81.81512<br>Latitude (Y): 8.08277,"-81.81512","8.08277"
-81.81755,8.0836,P-Land,Longitude (X): -81.81755<br>Latitude (Y): 8.0836,"-81.81755","8.0836"
-79.48699,9.00443,Panama Viejo,Longitude (X): -79.48699<br>Latitude (Y): 9.00443,"-79.48699","9.00443"
-82.23885,9.37424,Paunch,Longitude (X): -82.23885<br>Latitude (Y): 9.37424,"-82.23885","9.37424"
-82.24637,9.40137,Playa Bluff,Longitude (X): -82.24637<br>Latitude (Y): 9.40137,"-82.24637","9.40137"
-80.49001,7.24941,Playa Cambutal,Longitude (X): -80.49001<br>Latitude (Y): 7.24941,"-80.49001","7.24941"
-80.00284,7.5295,Playa El Toro,Longitude (X): -80.00284<br>Latitude (Y): 7.5295,"-80.00284","7.5295"
-79.5543,9.63022,Playa Grande,Longitude (X): -79.5543<br>Latitude (Y): 9.63022,"-79.5543","9.63022"
-80.50134,7.24867,Playa Guanico,Longitude (X): -80.50134<br>Latitude (Y): 7.24867,"-80.50134","7.24867"
-80.00032,7.50481,Playa Lagarto,Longitude (X): -80.00032<br>Latitude (Y): 7.50481,"-80.00032","7.50481"
-79.531542,8.950251,Playa Las Bovedas,Longitude (X): -79.531542<br>Latitude (Y): 8.950251,"-79.531542","8.950251"
-81.87385,8.17107,Playa Las Lajas,Longitude (X): -81.87385<br>Latitude (Y): 8.17107,"-81.87385","8.17107"
-80.05343,7.45317,Playa Los Destiladeros,Longitude (X): -80.05343<br>Latitude (Y): 7.45317,"-80.05343","7.45317"
-80.23571,7.42335,Playa Madrono,Longitude (X): -80.23571<br>Latitude (Y): 7.42335,"-80.23571","7.42335"
-79.84232,8.55886,Playa Malibu,Longitude (X): -79.84232<br>Latitude (Y): 8.55886,"-79.84232","8.55886"
-79.75265,9.4439,Playa Maria Chiquita,Longitude (X): -79.75265<br>Latitude (Y): 9.4439,"-79.75265","9.4439"
-80.25279,7.42152,Playa Raya,Longitude (X): -80.25279<br>Latitude (Y): 7.42152,"-80.25279","7.42152"
-79.97197,8.45361,Playa Rio Mar,Longitude (X): -79.97197<br>Latitude (Y): 8.45361,"-79.97197","8.45361"
-81.246,7.62623,Playa Santa Catalina,Longitude (X): -81.246<br>Latitude (Y): 7.62623,"-81.246","7.62623"
-79.86804,8.54875,Playa Serena,Longitude (X): -79.86804<br>Latitude (Y): 8.54875,"-79.86804","8.54875"
-79.91599,8.50683,Playa Teta,Longitude (X): -79.91599<br>Latitude (Y): 8.50683,"-79.91599","8.50683"
-80.19552,7.43252,Playa Venao,Longitude (X): -80.19552<br>Latitude (Y): 7.43252,"-80.19552","7.43252"
-81.23857,7.61573,Punta Brava,Longitude (X): -81.23857<br>Latitude (Y): 7.61573,"-81.23857","7.61573"
-81.2782,7.6339,Punta Roca,Longitude (X): -81.2782<br>Latitude (Y): 7.6339,"-81.2782","7.6339"
147.04497,-9.50543,Daugo Island,Longitude (X): 147.04497<br>Latitude (Y): -9.50543,"147.04497","-9.50543"
150.79144,-2.57407,Pikinini,Longitude (X): 150.79144<br>Latitude (Y): -2.57407,"150.79144","-2.57407"
147.24639,-9.52989,Sero Beach,Longitude (X): 147.24639<br>Latitude (Y): -9.52989,"147.24639","-9.52989"
141.2773,-2.68433,Vanimo,Longitude (X): 141.2773<br>Latitude (Y): -2.68433,"141.2773","-2.68433"
143.629908,-3.564904,Wewak,Longitude (X): 143.629908<br>Latitude (Y): -3.564904,"143.629908","-3.564904"
150.77296,2.57942,Long Long,Longitude (X): 150.77296<br>Latitude (Y): 2.57942,"150.77296","2.57942"
150.77319,-2.58296,Nago,Longitude (X): 150.77319<br>Latitude (Y): -2.58296,"150.77319","-2.58296"
150.70938,-2.61066,Ral Island,Longitude (X): 150.70938<br>Latitude (Y): -2.61066,"150.70938","-2.61066"
-76.8374,-12.32458,Caballeros,Longitude (X): -76.8374<br>Latitude (Y): -12.32458,"-76.8374","-12.32458"
-81.23267,-4.25031,Cabo Blanco,Longitude (X): -81.23267<br>Latitude (Y): -4.25031,"-81.23267","-4.25031"
-76.48464,-13.02844,Cerro Azul,Longitude (X): -76.48464<br>Latitude (Y): -13.02844,"-76.48464","-13.02844"
-79.443689,-7.704094,Chicama,Longitude (X): -79.443689<br>Latitude (Y): -7.704094,"-79.443689","-7.704094"
-76.78928,-12.38414,El Huayaco,Longitude (X): -76.78928<br>Latitude (Y): -12.38414,"-76.78928","-12.38414"
-76.82828,-12.33833,El Paso,Longitude (X): -76.82828<br>Latitude (Y): -12.33833,"-76.82828","-12.33833"
-77.03787,-12.18086,Herradurra,Longitude (X): -77.03787<br>Latitude (Y): -12.18086,"-77.03787","-12.18086"
-76.82112,-12.33873,La Isla,Longitude (X): -76.82112<br>Latitude (Y): -12.33873,"-76.82112","-12.33873"
-81.28602,-4.45346,Lobitos,Longitude (X): -81.28602<br>Latitude (Y): -4.45346,"-81.28602","-4.45346"
-77.03642,-12.1292,Makaha,Longitude (X): -77.03642<br>Latitude (Y): -12.1292,"-77.03642","-12.1292"
-81.06747,-4.1109,Mancora,Longitude (X): -81.06747<br>Latitude (Y): -4.1109,"-81.06747","-4.1109"
-76.83313,-12.32959,Oscar Point,Longitude (X): -76.83313<br>Latitude (Y): -12.32959,"-76.83313","-12.32959"
-79.58846,-7.41443,Pacasmayo,Longitude (X): -79.58846<br>Latitude (Y): -7.41443,"-79.58846","-7.41443"
-76.787965,-12.3858,Penascal,Longitude (X): -76.787965<br>Latitude (Y): -12.3858,"-76.787965","-12.3858"
-76.8277,-12.4083,Pico Alto,Longitude (X): -76.8277<br>Latitude (Y): -12.4083,"-76.8277","-12.4083"
-76.82942,-12.33521,Playa Norte,Longitude (X): -76.82942<br>Latitude (Y): -12.33521,"-76.82942","-12.33521"
-76.84548,-12.30818,Pulpos,Longitude (X): -76.84548<br>Latitude (Y): -12.30818,"-76.84548","-12.30818"
-79.12337,-8.08239,Punta Huanchaco,Longitude (X): -79.12337<br>Latitude (Y): -8.08239,"-79.12337","-8.08239"
-81.23834,-4.25077,Punta Panico,Longitude (X): -81.23834<br>Latitude (Y): -4.25077,"-81.23834","-4.25077"
-76.81714,-12.352,Punta Rocas,Longitude (X): -76.81714<br>Latitude (Y): -12.352,"-76.81714","-12.352"
-76.83495,-12.3291,Senoritas,Longitude (X): -76.83495<br>Latitude (Y): -12.3291,"-76.83495","-12.3291"
-76.81747,-12.3473,Spot Kontiki,Longitude (X): -76.81747<br>Latitude (Y): -12.3473,"-76.81747","-12.3473"
-76.84166,-12.31261,El Silencio,Longitude (X): -76.84166<br>Latitude (Y): -12.31261,"-76.84166","-12.31261"
-76.78849,-12.381755,Santa Rosa,Longitude (X): -76.78849<br>Latitude (Y): -12.381755,"-76.78849","-12.381755"
120.4169,17.9243,Badoc Island Lefts,Longitude (X): 120.4169<br>Latitude (Y): 17.9243,"120.4169","17.9243"
120.43957,17.92041,Badoc Point,Longitude (X): 120.43957<br>Latitude (Y): 17.92041,"120.43957","17.92041"
126.1705,9.7455,Barrio,Longitude (X): 126.1705<br>Latitude (Y): 9.7455,"126.1705","9.7455"
120.31893,16.54244,Bauang,Longitude (X): 120.31893<br>Latitude (Y): 16.54244,"120.31893","16.54244"
125.43833,11.6154,Boulevard,Longitude (X): 125.43833<br>Latitude (Y): 11.6154,"125.43833","11.6154"
120.30779,16.64427,Car-rille,Longitude (X): 120.30779<br>Latitude (Y): 16.64427,"120.30779","16.64427"
126.11547,9.91842,Caridad,Longitude (X): 126.11547<br>Latitude (Y): 9.91842,"126.11547","9.91842"
126.20562,9.30347,Cauit Point,Longitude (X): 126.20562<br>Latitude (Y): 9.30347,"126.20562","9.30347"
126.1652,9.8137,Cloud 9,Longitude (X): 126.1652<br>Latitude (Y): 9.8137,"126.1652","9.8137"
120.33383,16.8191,Darigayos,Longitude (X): 120.33383<br>Latitude (Y): 16.8191,"120.33383","16.8191"
126.16723,9.8017,Horseshoe,Longitude (X): 126.16723<br>Latitude (Y): 9.8017,"126.16723","9.8017"
126.17302,9.30673,Jelly's Point,Longitude (X): 126.17302<br>Latitude (Y): 9.30673,"126.17302","9.30673"
126.05564,9.23391,Lanuza,Longitude (X): 126.05564<br>Latitude (Y): 9.23391,"126.05564","9.23391"
125.5483,11.41315,Llorente,Longitude (X): 125.5483<br>Latitude (Y): 11.41315,"125.5483","11.41315"
124.41388,13.66896,Lucky Point,Longitude (X): 124.41388<br>Latitude (Y): 13.66896,"124.41388","13.66896"
126.1806,9.639743,Mabuntok,Longitude (X): 126.1806<br>Latitude (Y): 9.639743,"126.1806","9.639743"
124.3952,13.68978,Majestics,Longitude (X): 124.3952<br>Latitude (Y): 13.68978,"124.3952","13.68978"
120.35837,17.5417,Manangat,Longitude (X): 120.35837<br>Latitude (Y): 17.5417,"120.35837","17.5417"
126.1792,9.0796,Marami Beach,Longitude (X): 126.1792<br>Latitude (Y): 9.0796,"126.1792","9.0796"
120.3072,16.6393,Mona Lisa Point,Longitude (X): 120.3072<br>Latitude (Y): 16.6393,"120.3072","16.6393"
126.10358,9.24909,Moshi Moshi,Longitude (X): 126.10358<br>Latitude (Y): 9.24909,"126.10358","9.24909"
120.4547,17.36104,Nalvo,Longitude (X): 120.4547<br>Latitude (Y): 17.36104,"120.4547","17.36104"
126.1033,9.9435,Pacifico,Longitude (X): 126.1033<br>Latitude (Y): 9.9435,"126.1033","9.9435"
126.13902,9.73351,Pansukian,Longitude (X): 126.13902<br>Latitude (Y): 9.73351,"126.13902","9.73351"
120.42613,17.49163,Parada Santa,Longitude (X): 120.42613<br>Latitude (Y): 17.49163,"120.42613","17.49163"
126.1644,9.83418,Pencit Reef,Longitude (X): 126.1644<br>Latitude (Y): 9.83418,"126.1644","9.83418"
126.0983,9.8577,Pilar,Longitude (X): 126.0983<br>Latitude (Y): 9.8577,"126.0983","9.8577"
125.44722,11.606,Pirates Cove,Longitude (X): 125.44722<br>Latitude (Y): 11.606,"125.44722","11.606"
120.28783,16.6064,Poro Point,Longitude (X): 120.28783<br>Latitude (Y): 16.6064,"120.28783","16.6064"
120.3561,17.69223,Puro Pinget,Longitude (X): 120.3561<br>Latitude (Y): 17.69223,"120.3561","17.69223"
125.99974,9.29598,Random Beach Break,Longitude (X): 125.99974<br>Latitude (Y): 9.29598,"125.99974","9.29598"
120.43735,17.92371,Star Tubes,Longitude (X): 120.43735<br>Latitude (Y): 17.92371,"120.43735","17.92371"
126.1567,9.8435,Stimpy's,Longitude (X): 126.1567<br>Latitude (Y): 9.8435,"126.1567","9.8435"
125.8269,10.966,Sulingan Beach,Longitude (X): 125.8269<br>Latitude (Y): 10.966,"125.8269","10.966"
126.2661,8.9883,Tago River,Longitude (X): 126.2661<br>Latitude (Y): 8.9883,"126.2661","8.9883"
126.1636,9.80648,Tuason Point,Longitude (X): 126.1636<br>Latitude (Y): 9.80648,"126.1636","9.80648"
120.41187,17.91488,Turtle Head,Longitude (X): 120.41187<br>Latitude (Y): 17.91488,"120.41187","17.91488"
120.31823,16.65492,Urbiztondo Beach,Longitude (X): 120.31823<br>Latitude (Y): 16.65492,"120.31823","16.65492"
124.23505,13.58103,Virac Harbour,Longitude (X): 124.23505<br>Latitude (Y): 13.58103,"124.23505","13.58103"
-17.21588,32.85345,Achadas da Cruz,Longitude (X): -17.21588<br>Latitude (Y): 32.85345,"-17.21588","32.85345"
-8.87116,41.78026,Afife,Longitude (X): -8.87116<br>Latitude (Y): 41.78026,"-8.87116","41.78026"
-25.45562,37.71656,Água d'Alto,Longitude (X): -25.45562<br>Latitude (Y): 37.71656,"-25.45562","37.71656"
-8.77935,41.44399,Aguçadoura,Longitude (X): -8.77935<br>Latitude (Y): 41.44399,"-8.77935","41.44399"
-8.24948,37.08653,Albufeira,Longitude (X): -8.24948<br>Latitude (Y): 37.08653,"-8.24948","37.08653"
-9.31212,39.37982,Almagreira,Longitude (X): -9.31212<br>Latitude (Y): 39.37982,"-9.31212","39.37982"
-7.49794,37.17005,Altura,Longitude (X): -7.49794<br>Latitude (Y): 37.17005,"-7.49794","37.17005"
-8.59,37.12255,Alvor,Longitude (X): -8.59<br>Latitude (Y): 37.12255,"-8.59","37.12255"
-8.9032,37.16709,Amado,Longitude (X): -8.9032<br>Latitude (Y): 37.16709,"-8.9032","37.16709"
-8.8446,37.3508,Amoreira,Longitude (X): -8.8446<br>Latitude (Y): 37.3508,"-8.8446","37.3508"
-9.33566,39.26324,Areia Branca,Longitude (X): -9.33566<br>Latitude (Y): 39.26324,"-9.33566","39.26324"
-8.86558,37.29398,Arrifana,Longitude (X): -8.86558<br>Latitude (Y): 37.29398,"-8.86558","37.29398"
-8.71561,41.20848,Aterro,Longitude (X): -8.71561<br>Latitude (Y): 41.20848,"-8.71561","41.20848"
-8.74159,41.33752,Azurara,Longitude (X): -8.74159<br>Latitude (Y): 41.33752,"-8.74159","41.33752"
-9.33825,39.37365,Baleal,Longitude (X): -9.33825<br>Latitude (Y): 39.37365,"-9.33825","39.37365"
-8.96402,37.02561,Beliche,Longitude (X): -8.96402<br>Latitude (Y): 37.02561,"-8.96402","37.02561"
-9.09226,38.65643,Bico,Longitude (X): -9.09226<br>Latitude (Y): 38.65643,"-9.09226","38.65643"
-8.9012,37.1976,Bordeira,Longitude (X): -8.9012<br>Latitude (Y): 37.1976,"-8.9012","37.1976"
-8.83112,41.67859,Cabedelo de Viana,Longitude (X): -8.83112<br>Latitude (Y): 41.67859,"-8.83112","41.67859"
-8.66674,41.13797,Cabedelo do Douro,Longitude (X): -8.66674<br>Latitude (Y): 41.13797,"-8.66674","41.13797"
-8.714852,41.219399,Cabo do Mundo,Longitude (X): -8.714852<br>Latitude (Y): 41.219399,"-8.714852","41.219399"
-8.66369,41.11499,Canide Norte,Longitude (X): -8.66369<br>Latitude (Y): 41.11499,"-8.66369","41.11499"
-9.33959,39.36719,Cantinho da Baía,Longitude (X): -9.33959<br>Latitude (Y): 39.36719,"-9.33959","39.36719"
-9.33398,38.67928,Carcavelos,Longitude (X): -9.33398<br>Latitude (Y): 38.67928,"-9.33398","38.67928"
-9.42312,38.99064,Cave,Longitude (X): -9.42312<br>Latitude (Y): 38.99064,"-9.42312","38.99064"
-8.80318,38.38096,Comporta,Longitude (X): -8.80318<br>Latitude (Y): 38.38096,"-8.80318","38.38096"
-9.35942,39.32576,Consolação,Longitude (X): -9.35942<br>Latitude (Y): 39.32576,"-9.35942","39.32576"
-17.14072,32.84224,Contreiras,Longitude (X): -17.14072<br>Latitude (Y): 32.84224,"-17.14072","32.84224"
-8.93747,37.10865,Cordoama,Longitude (X): -8.93747<br>Latitude (Y): 37.10865,"-8.93747","37.10865"
-8.65872,40.9394,Cortegaça,Longitude (X): -8.65872<br>Latitude (Y): 40.9394,"-8.65872","40.9394"
-9.23808,38.6413,Costa da Caparica,Longitude (X): -9.23808<br>Latitude (Y): 38.6413,"-9.23808","38.6413"
-8.75399,40.61429,Costa Nova,Longitude (X): -8.75399<br>Latitude (Y): 40.61429,"-8.75399","40.61429"
-9.36279,39.36069,Cova da Alfarroba,Longitude (X): -9.36279<br>Latitude (Y): 39.36069,"-9.36279","39.36069"
-9.25608,38.66091,Cova do Vapor,Longitude (X): -9.25608<br>Latitude (Y): 38.66091,"-9.25608","38.66091"
-9.42663,39.00128,Coxos,Longitude (X): -9.42663<br>Latitude (Y): 39.00128,"-9.42663","39.00128"
-9.4198,38.96745,Ericeira,Longitude (X): -9.4198<br>Latitude (Y): 38.96745,"-9.4198","38.96745"
-8.64606,41.00856,Espinho,Longitude (X): -8.64606<br>Latitude (Y): 41.00856,"-8.64606","41.00856"
-8.79222,41.5425,Esposende,Longitude (X): -8.79222<br>Latitude (Y): 41.5425,"-8.79222","41.5425"
-17.04905,32.80882,Fajã da Areia,Longitude (X): -17.04905<br>Latitude (Y): 32.80882,"-17.04905","32.80882"
-28.00493,38.6001,Fajã da Caldeira de Santo Cristo,Longitude (X): -28.00493<br>Latitude (Y): 38.6001,"-28.00493","38.6001"
-27.9654,38.643,Fajã dos Cubres,Longitude (X): -27.9654<br>Latitude (Y): 38.643,"-27.9654","38.643"
-8.86877,40.15543,Figueira Foz,Longitude (X): -8.86877<br>Latitude (Y): 40.15543,"-8.86877","40.15543"
-9.19669,38.57405,Fonte da Telha,Longitude (X): -9.19669<br>Latitude (Y): 38.57405,"-9.19669","38.57405"
-9.228342,39.433516,Foz do Arelho,Longitude (X): -9.228342<br>Latitude (Y): 39.433516,"-9.228342","39.433516"
-9.4155,38.94222,Foz do Lizandro,Longitude (X): -9.4155<br>Latitude (Y): 38.94222,"-9.4155","38.94222"
-8.67797,40.87167,Furadouro,Longitude (X): -8.67797<br>Latitude (Y): 40.87167,"-8.67797","40.87167"
-9.47221,38.73115,Guincho,Longitude (X): -9.47221<br>Latitude (Y): 38.73115,"-9.47221","38.73115"
-8.24466,37.08592,Inatel,Longitude (X): -8.24466<br>Latitude (Y): 37.08592,"-8.24466","37.08592"
-8.87921,37.04655,Ingrina,Longitude (X): -8.87921<br>Latitude (Y): 37.04655,"-8.87921","37.04655"
-17.21258,32.73727,Jardins do Mar,Longitude (X): -17.21258<br>Latitude (Y): 32.73727,"-17.21258","32.73727"
-9.33707,39.37408,Lagido,Longitude (X): -9.33707<br>Latitude (Y): 39.37408,"-9.33707","39.37408"
-9.18133,38.50695,Lagoa de Albufeira,Longitude (X): -9.18133<br>Latitude (Y): 38.50695,"-9.18133","38.50695"
-8.6648,37.1069,Lagos,Longitude (X): -8.6648<br>Latitude (Y): 37.1069,"-8.6648","37.1069"
-8.705359,41.189397,Leça da Palmeira,Longitude (X): -8.705359<br>Latitude (Y): 41.189397,"-8.705359","41.189397"
-8.72628,37.08682,Luz,Longitude (X): -8.72628<br>Latitude (Y): 37.08682,"-8.72628","37.08682"
-8.661599,40.920692,Maceda,Longitude (X): -8.661599<br>Latitude (Y): 40.920692,"-8.661599","40.920692"
-16.7647,32.71629,Machico,Longitude (X): -16.7647<br>Latitude (Y): 32.71629,"-16.7647","32.71629"
-17.135837,32.700809,Madalena do Mar,Longitude (X): -17.135837<br>Latitude (Y): 32.700809,"-17.135837","32.700809"
-8.80224,37.77998,Malhão,Longitude (X): -8.80224<br>Latitude (Y): 37.77998,"-8.80224","37.77998"
-8.93799,37.00585,Mareta,Longitude (X): -8.93799<br>Latitude (Y): 37.00585,"-8.93799","37.00585"
-8.92506,37.02029,Martinhal,Longitude (X): -8.92506<br>Latitude (Y): 37.02029,"-8.92506","37.02029"
-9.42028,38.97554,Matadouro,Longitude (X): -9.42028<br>Latitude (Y): 38.97554,"-9.42028","38.97554"
-8.691471,41.176235,Matosinhos,Longitude (X): -8.691471<br>Latitude (Y): 41.176235,"-8.691471","41.176235"
-8.64565,37.11757,Meia Praia,Longitude (X): -8.64565<br>Latitude (Y): 37.11757,"-8.64565","37.11757"
-9.34825,39.36253,Meio da Baía,Longitude (X): -9.34825<br>Latitude (Y): 39.36253,"-9.34825","39.36253"
-8.738066,41.304812,Mindelo,Longitude (X): -8.738066<br>Latitude (Y): 41.304812,"-8.738066","41.304812"
-8.803694,40.454438,Mira,Longitude (X): -8.803694<br>Latitude (Y): 40.454438,"-8.803694","40.454438"
-8.86631,41.84946,Moledo do Minho,Longitude (X): -8.86631<br>Latitude (Y): 41.84946,"-8.86631","41.84946"
-9.36608,39.34928,Molhe Leste,Longitude (X): -9.36608<br>Latitude (Y): 39.34928,"-9.36608","39.34928"
-8.85325,37.34144,Monte Clérigo,Longitude (X): -8.85325<br>Latitude (Y): 37.34144,"-8.85325","37.34144"
-8.7219,40.73884,Murtosa,Longitude (X): -8.7219<br>Latitude (Y): 40.73884,"-8.7219","40.73884"
-9.074201,39.601665,Nazaré,Longitude (X): -9.074201<br>Latitude (Y): 39.601665,"-9.074201","39.601665"
-8.797673,37.441437,Odeceixe,Longitude (X): -8.797673<br>Latitude (Y): 37.441437,"-8.797673","37.441437"
-8.785984,41.513448,Ofir,Longitude (X): -8.785984<br>Latitude (Y): 41.513448,"-8.785984","41.513448"
-9.37784,39.3691,Papoa,Longitude (X): -9.37784<br>Latitude (Y): 39.3691,"-9.37784","39.3691"
-9.353274,38.685719,Parede,Longitude (X): -9.353274<br>Latitude (Y): 38.685719,"-9.353274","38.685719"
-17.23079,32.75788,Paul do Mar,Longitude (X): -17.23079<br>Latitude (Y): 32.75788,"-17.23079","32.75788"
-9.42196,38.98081,Pedra Branca,Longitude (X): -9.42196<br>Latitude (Y): 38.98081,"-9.42196","38.98081"
-8.95382,39.91942,Pedrogão,Longitude (X): -8.95382<br>Latitude (Y): 39.91942,"-8.95382","39.91942"
-9.30362,39.38402,Pico da Mota,Longitude (X): -9.30362<br>Latitude (Y): 39.38402,"-9.30362","39.38402"
-17.26253,32.8138,Ponta do Pargo,Longitude (X): -17.26253<br>Latitude (Y): 32.8138,"-17.26253","32.8138"
-17.23859,32.76728,Ponta do Paul,Longitude (X): -17.23859<br>Latitude (Y): 32.76728,"-17.23859","32.76728"
-9.35552,39.31967,Porto Batel,Longitude (X): -9.35552<br>Latitude (Y): 39.31967,"-9.35552","39.31967"
-8.79329,37.857257,Porto Côvo,Longitude (X): -8.79329<br>Latitude (Y): 37.857257,"-8.79329","37.857257"
-16.82305,32.76852,Porto da Cruz,Longitude (X): -16.82305<br>Latitude (Y): 32.76852,"-16.82305","32.76852"
-8.770438,41.38159,Póvoa de Varzim,Longitude (X): -8.770438<br>Latitude (Y): 41.38159,"-8.770438","41.38159"
-8.75362,41.34584,Praia Azul,Longitude (X): -8.75362<br>Latitude (Y): 41.34584,"-8.75362","41.34584"
-8.74857,40.63665,Praia da Barra,Longitude (X): -8.74857<br>Latitude (Y): 40.63665,"-8.74857","40.63665"
-8.5306,37.1155,Praia da Rocha,Longitude (X): -8.5306<br>Latitude (Y): 37.1155,"-8.5306","37.1155"
-8.9723,39.87476,Praia da Vieira,Longitude (X): -8.9723<br>Latitude (Y): 39.87476,"-8.9723","39.87476"
-9.21465,38.4237,Praia das Bicas,Longitude (X): -9.21465<br>Latitude (Y): 38.4237,"-9.21465","38.4237"
-65.67182,18.36225,La Selva,Longitude (X): -65.67182<br>Latitude (Y): 18.36225,"-65.67182","18.36225"
-9.46961,38.82562,Praia das Maçãs,Longitude (X): -9.46961<br>Latitude (Y): 38.82562,"-9.46961","38.82562"
-7.45493,37.17765,Praia de Monte Gordo,Longitude (X): -7.45493<br>Latitude (Y): 37.17765,"-7.45493","37.17765"
-9.24251,38.64624,Praia do CDS,Longitude (X): -9.24251<br>Latitude (Y): 38.64624,"-9.24251","38.64624"
-9.08331,39.6093,Praia do Norte,Longitude (X): -9.08331<br>Latitude (Y): 39.6093,"-9.08331","39.6093"
-8.678315,41.152134,Praia dos Ingleses,Longitude (X): -8.678315<br>Latitude (Y): 41.152134,"-8.678315","41.152134"
-9.47659,38.81517,Praia Grande,Longitude (X): -9.47659<br>Latitude (Y): 38.81517,"-9.47659","38.81517"
-9.33848,39.37219,Prainha,Longitude (X): -9.33848<br>Latitude (Y): 39.37219,"-9.33848","39.37219"
-25.58743,37.81426,Rabo de Peixe,Longitude (X): -25.58743<br>Latitude (Y): 37.81426,"-25.58743","37.81426"
-9.42194,38.98248,Reef,Longitude (X): -9.42194<br>Latitude (Y): 38.98248,"-9.42194","38.98248"
-8.00534,37.01357,Ria Formosa,Longitude (X): -8.00534<br>Latitude (Y): 37.01357,"-8.00534","37.01357"
-9.41901,38.98775,Ribeira d'Ilhas,Longitude (X): -9.41901<br>Latitude (Y): 38.98775,"-9.41901","38.98775"
-17.149897,32.851348,Ribeira das Janelas,Longitude (X): -17.149897<br>Latitude (Y): 32.851348,"-17.149897","32.851348"
-25.304438,37.731722,Ribeira Quente,Longitude (X): -25.304438<br>Latitude (Y): 37.731722,"-25.304438","37.731722"
-8.94011,37.00549,Sagres,Longitude (X): -8.94011<br>Latitude (Y): 37.00549,"-8.94011","37.00549"
-8.66332,41.11289,Salgueiros,Longitude (X): -8.66332<br>Latitude (Y): 41.11289,"-8.66332","41.11289"
-25.7126,37.87963,Santa Bárbara,Longitude (X): -25.7126<br>Latitude (Y): 37.87963,"-25.7126","37.87963"
-27.04885,38.70693,Santa Catarina,Longitude (X): -27.04885<br>Latitude (Y): 38.70693,"-27.04885","38.70693"
-9.378494,39.140126,Santa Cruz,Longitude (X): -9.378494<br>Latitude (Y): 39.140126,"-9.378494","39.140126"
-9.31165,38.68512,Santo Amaro,Longitude (X): -9.31165<br>Latitude (Y): 38.68512,"-9.31165","38.68512"
-9.41991,38.93198,São Julião,Longitude (X): -9.41991<br>Latitude (Y): 38.93198,"-9.41991","38.93198"
-9.42144,39.01189,São Lourenço,Longitude (X): -9.42144<br>Latitude (Y): 39.01189,"-9.42144","39.01189"
-9.032312,39.755465,São Pedro de Moel,Longitude (X): -9.032312<br>Latitude (Y): 39.755465,"-9.032312","39.755465"
-8.805253,37.922841,São Torpes,Longitude (X): -8.805253<br>Latitude (Y): 37.922841,"-8.805253","37.922841"
-9.099134,38.442441,Sesimbra,Longitude (X): -9.099134<br>Latitude (Y): 38.442441,"-9.099134","38.442441"
-8.866925,37.954045,Sines,Longitude (X): -8.866925<br>Latitude (Y): 37.954045,"-8.866925","37.954045"
-9.361212,39.341865,Supertubos,Longitude (X): -9.361212<br>Latitude (Y): 39.341865,"-9.361212","39.341865"
-7.62089,37.11216,Tavira,Longitude (X): -7.62089<br>Latitude (Y): 37.11216,"-7.62089","37.11216"
-8.948,37.00725,Tonel,Longitude (X): -8.948<br>Latitude (Y): 37.00725,"-8.948","37.00725"
-8.90208,38.48408,Tróia,Longitude (X): -8.90208<br>Latitude (Y): 38.48408,"-8.90208","38.48408"
-8.8693,37.2474,Vale Figueiras,Longitude (X): -8.8693<br>Latitude (Y): 37.2474,"-8.8693","37.2474"
-25.43851,37.71368,Vila Franca do Campo,Longitude (X): -25.43851<br>Latitude (Y): 37.71368,"-25.43851","37.71368"
-8.790498,37.718826,Vila Nova de Milfontes,Longitude (X): -8.790498<br>Latitude (Y): 37.718826,"-8.790498","37.718826"
-8.86426,41.81135,Vila Praia de Âncora,Longitude (X): -8.86426<br>Latitude (Y): 41.81135,"-8.86426","41.81135"
-8.78673,37.52235,Zambujeira do Mar,Longitude (X): -8.78673<br>Latitude (Y): 37.52235,"-8.78673","37.52235"
-8.87168,37.04653,Zavial,Longitude (X): -8.87168<br>Latitude (Y): 37.04653,"-8.87168","37.04653"
-67.2521,18.37198,Antonio's,Longitude (X): -67.2521<br>Latitude (Y): 18.37198,"-67.2521","18.37198"
-65.95713,18.45119,Aviones,Longitude (X): -65.95713<br>Latitude (Y): 18.45119,"-65.95713","18.45119"
-67.155573,18.426499,Bridges,Longitude (X): -67.155573<br>Latitude (Y): 18.426499,"-67.155573","18.426499"
-65.96723,18.45394,Chatarra,Longitude (X): -65.96723<br>Latitude (Y): 18.45394,"-65.96723","18.45394"
-67.1644,18.45862,Crash Boat,Longitude (X): -67.1644<br>Latitude (Y): 18.45862,"-67.1644","18.45862"
-67.26974,18.36551,Domes,Longitude (X): -67.26974<br>Latitude (Y): 18.36551,"-67.26974","18.36551"
-67.165808,18.460664,Gas Chambers,Longitude (X): -67.165808<br>Latitude (Y): 18.460664,"-67.165808","18.460664"
-66.95538,18.48879,Guajataca,Longitude (X): -66.95538<br>Latitude (Y): 18.48879,"-66.95538","18.48879"
-65.96236,17.973266,Inches,Longitude (X): -65.96236<br>Latitude (Y): 17.973266,"-65.96236","17.973266"
-67.27071,18.36086,Indicators,Longitude (X): -67.27071<br>Latitude (Y): 18.36086,"-67.27071","18.36086"
-67.076262,18.513526,Playa Jobos,Longitude (X): -67.076262<br>Latitude (Y): 18.513526,"-67.076262","18.513526"
-66.09502,18.46622,La Ocho,Longitude (X): -66.09502<br>Latitude (Y): 18.46622,"-66.09502","18.46622"
-65.71539,18.37729,La Pared,Longitude (X): -65.71539<br>Latitude (Y): 18.37729,"-65.71539","18.37729"
-67.26016,18.343971,Little Malibu,Longitude (X): -67.26016<br>Latitude (Y): 18.343971,"-67.26016","18.343971"
-66.44833,18.47183,Los Tubos,Longitude (X): -66.44833<br>Latitude (Y): 18.47183,"-66.44833","18.47183"
-66.72997,18.47471,Margara,Longitude (X): -66.72997<br>Latitude (Y): 18.47471,"-66.72997","18.47471"
-67.269625,18.358018,Maria's,Longitude (X): -67.269625<br>Latitude (Y): 18.358018,"-67.269625","18.358018"
-67.03936,18.51274,Middles,Longitude (X): -67.03936<br>Latitude (Y): 18.51274,"-67.03936","18.51274"
-67.259382,18.370601,Parking Lots,Longitude (X): -67.259382<br>Latitude (Y): 18.370601,"-67.259382","18.370601"
-66.01028,18.44395,Pine Grove,Longitude (X): -66.01028<br>Latitude (Y): 18.44395,"-66.01028","18.44395"
-67.26108,18.36994,Pools,Longitude (X): -67.26108<br>Latitude (Y): 18.36994,"-67.26108","18.36994"
-66.07414,18.45877,San Juan,Longitude (X): -66.07414<br>Latitude (Y): 18.45877,"-66.07414","18.45877"
-67.25839,18.37063,Sandy Beach,Longitude (X): -67.25839<br>Latitude (Y): 18.37063,"-67.25839","18.37063"
-67.14044,18.50585,Surfer's Beach,Longitude (X): -67.14044<br>Latitude (Y): 18.50585,"-67.14044","18.50585"
-67.13813,18.50749,Table Top,Longitude (X): -67.13813<br>Latitude (Y): 18.50749,"-67.13813","18.50749"
-67.2703,18.35938,The Point,Longitude (X): -67.2703<br>Latitude (Y): 18.35938,"-67.2703","18.35938"
-65.95588,18.45084,Tocones,Longitude (X): -65.95588<br>Latitude (Y): 18.45084,"-65.95588","18.45084"
-67.26706,18.35292,Tres Palmas,Longitude (X): -67.26706<br>Latitude (Y): 18.35292,"-67.26706","18.35292"
-67.16653,18.48402,Wilderness,Longitude (X): -67.16653<br>Latitude (Y): 18.48402,"-67.16653","18.48402"
-67.16889,18.47226,Wishing Well,Longitude (X): -67.16889<br>Latitude (Y): 18.47226,"-67.16889","18.47226"
131.96301,43.07172,Patrokl,Longitude (X): 131.96301<br>Latitude (Y): 43.07172,"131.96301","43.07172"
131.73855,42.951,Popov Island,Longitude (X): 131.73855<br>Latitude (Y): 42.951,"131.73855","42.951"
132.01223,43.11484,Shitovaya,Longitude (X): 132.01223<br>Latitude (Y): 43.11484,"132.01223","43.11484"
39.73291,43.56836,Sochi,Longitude (X): 39.73291<br>Latitude (Y): 43.56836,"39.73291","43.56836"
131.94111,43.07219,Uliss,Longitude (X): 131.94111<br>Latitude (Y): 43.07219,"131.94111","43.07219"
24.83278,-34.16253,Anne Avenue,Longitude (X): 24.83278<br>Latitude (Y): -34.16253,"24.83278","-34.16253"
31.01922,-29.92419,Ansteys,Longitude (X): 31.01922<br>Latitude (Y): -29.92419,"31.01922","-29.92419"
25.670797,-33.983717,Avalanche,Longitude (X): 25.670797<br>Latitude (Y): -33.983717,"25.670797","-33.983717"
25.655675,-33.979237,Baked Beans,Longitude (X): 25.655675<br>Latitude (Y): -33.979237,"25.655675","-33.979237"
31.22306,-29.53377,Ballito,Longitude (X): 31.22306<br>Latitude (Y): -29.53377,"31.22306","-29.53377"
18.90517,-34.3591,Betty's Bay,Longitude (X): 18.90517<br>Latitude (Y): -34.3591,"18.90517","-34.3591"
22.97748,-34.09,Buffels Bay,Longitude (X): 22.97748<br>Latitude (Y): -34.09,"22.97748","-34.09"
24.83781,-34.17329,Cape St Francis,Longitude (X): 24.83781<br>Latitude (Y): -34.17329,"24.83781","-34.17329"
18.39523,-33.90688,Cape Town,Longitude (X): 18.39523<br>Latitude (Y): -33.90688,"18.39523","-33.90688"
31.0514,-29.88825,Cave Rock,Longitude (X): 31.0514<br>Latitude (Y): -29.88825,"31.0514","-29.88825"
25.6719,-33.98524,Clubhouse,Longitude (X): 25.6719<br>Latitude (Y): -33.98524,"25.6719","-33.98524"
29.16853,-31.96605,Coffee Bay,Longitude (X): 29.16853<br>Latitude (Y): -31.96605,"29.16853","-31.96605"
25.649184,-33.976357,Denvils,Longitude (X): 25.649184<br>Latitude (Y): -33.976357,"25.649184","-33.976357"
18.32926,-34.0584,Dungeons,Longitude (X): 18.32926<br>Latitude (Y): -34.0584,"18.32926","-34.0584"
18.33275,-32.31595,Elands Bay,Longitude (X): 18.33275<br>Latitude (Y): -32.31595,"18.33275","-32.31595"
25.64476,-33.96364,Fence,Longitude (X): 25.64476<br>Latitude (Y): -33.96364,"25.64476","-33.96364"
31.0889,-29.72629,Flowrider,Longitude (X): 31.0889<br>Latitude (Y): -29.72629,"31.0889","-29.72629"
19.25098,-34.41399,Hermanus,Longitude (X): 19.25098<br>Latitude (Y): -34.41399,"19.25098","-34.41399"
25.65272,-33.97829,Humewood Pier,Longitude (X): 25.65272<br>Latitude (Y): -33.97829,"25.65272","-33.97829"
24.93303,-34.03139,Jeffreys Bay,Longitude (X): 24.93303<br>Latitude (Y): -34.03139,"24.93303","-34.03139"
18.449851,-34.126433,Kalk Bay,Longitude (X): 18.449851<br>Latitude (Y): -34.126433,"18.449851","-34.126433"
19.00865,-34.3459,Kleinmond,Longitude (X): 19.00865<br>Latitude (Y): -34.3459,"19.00865","-34.3459"
18.32039,-34.14023,Kommetjie,Longitude (X): 18.32039<br>Latitude (Y): -34.14023,"18.32039","-34.14023"
18.33219,-34.13569,Long Beach,Longitude (X): 18.33219<br>Latitude (Y): -34.13569,"18.33219","-34.13569"
18.44366,-33.71848,Melkbosstrand,Longitude (X): 18.44366<br>Latitude (Y): -33.71848,"18.44366","-33.71848"
25.66359,-33.98198,Millers,Longitude (X): 25.66359<br>Latitude (Y): -33.98198,"25.66359","-33.98198"
22.151366,-34.179465,Mossel Bay,Longitude (X): 22.151366<br>Latitude (Y): -34.179465,"22.151366","-34.179465"
18.49,-34.09988,Muizenberg,Longitude (X): 18.49<br>Latitude (Y): -34.09988,"18.49","-34.09988"
27.95217,-32.99671,Nahoon Reef,Longitude (X): 27.95217<br>Latitude (Y): -32.99671,"27.95217","-32.99671"
31.03987,-29.85237,New Pier,Longitude (X): 31.03987<br>Latitude (Y): -29.85237,"31.03987","-29.85237"
31.03878,-29.84991,North Beach,Longitude (X): 31.03878<br>Latitude (Y): -29.84991,"31.03878","-29.84991"
18.31821,-34.14567,Outer Kom,Longitude (X): 18.31821<br>Latitude (Y): -34.14567,"18.31821","-34.14567"
25.67302,-33.98733,Pipe,Longitude (X): 25.67302<br>Latitude (Y): -33.98733,"25.67302","-33.98733"
23.3785,-34.057,Plettenberg Bay,Longitude (X): 23.3785<br>Latitude (Y): -34.057,"23.3785","-34.057"
26.8941,-33.6075,Port Alfred,Longitude (X): 26.8941<br>Latitude (Y): -33.6075,"26.8941","-33.6075"
24.8368,-34.209,Seal Point,Longitude (X): 24.8368<br>Latitude (Y): -34.209,"24.8368","-34.209"
25.65891,-33.9801,Shark Rock Pier,Longitude (X): 25.65891<br>Latitude (Y): -33.9801,"25.65891","-33.9801"
21.43643,-34.37082,Still Bay,Longitude (X): 21.43643<br>Latitude (Y): -34.37082,"21.43643","-34.37082"
18.82341,-34.1159,Strand,Longitude (X): 18.82341<br>Latitude (Y): -34.1159,"18.82341","-34.1159"
31.22605,-29.52735,Sunrise,Longitude (X): 31.22605<br>Latitude (Y): -29.52735,"31.22605","-29.52735"
18.33813,-34.12852,Sunset Reef,Longitude (X): 18.33813<br>Latitude (Y): -34.12852,"18.33813","-34.12852"
18.35255,-34.11587,The Dunes,Longitude (X): 18.35255<br>Latitude (Y): -34.11587,"18.35255","-34.11587"
18.35269,-34.09516,The Hoek,Longitude (X): 18.35269<br>Latitude (Y): -34.09516,"18.35269","-34.09516"
31.11578,-29.67482,Umdloti,Longitude (X): 31.11578<br>Latitude (Y): -29.67482,"31.11578","-29.67482"
22.54898,-34.00447,Victoria Bay,Longitude (X): 22.54898<br>Latitude (Y): -34.00447,"22.54898","-34.00447"
30.86832,-30.0841,Warner Beach,Longitude (X): 30.86832<br>Latitude (Y): -30.0841,"30.86832","-30.0841"
31.04041,-29.85429,Wedge,Longitude (X): 31.04041<br>Latitude (Y): -29.85429,"31.04041","-29.85429"
31.17029,-29.59354,Westbrook,Longitude (X): 31.17029<br>Latitude (Y): -29.59354,"31.17029","-29.59354"
22.57958,-33.99543,Wilderness,Longitude (X): 22.57958<br>Latitude (Y): -33.99543,"22.57958","-33.99543"
18.16222,-33.36566,Yzerfontein,Longitude (X): 18.16222<br>Latitude (Y): -33.36566,"18.16222","-33.36566"
-8.97065,42.74047,Aguieira,Longitude (X): -8.97065<br>Latitude (Y): 42.74047,"-8.97065","42.74047"
-4.70874,43.41032,Andrín,Longitude (X): -4.70874<br>Latitude (Y): 43.41032,"-4.70874","43.41032"
-3.32272,43.39936,Arenillas,Longitude (X): -3.32272<br>Latitude (Y): 43.39936,"-3.32272","43.39936"
-2.80442,43.43057,Bakio,Longitude (X): -2.80442<br>Latitude (Y): 43.43057,"-2.80442","43.43057"
-5.91963,36.18665,Barbate,Longitude (X): -5.91963<br>Latitude (Y): 36.18665,"-5.91963","36.18665"
-3.46636,43.46369,Berria,Longitude (X): -3.46636<br>Latitude (Y): 43.46369,"-3.46636","43.46369"
-6.30579,36.52988,Cádiz,Longitude (X): -6.30579<br>Latitude (Y): 36.52988,"-6.30579","36.52988"
-8.21543,43.58311,Campelo,Longitude (X): -8.21543<br>Latitude (Y): 43.58311,"-8.21543","43.58311"
-6.09475,36.27633,Conil de la Frontera,Longitude (X): -6.09475<br>Latitude (Y): 36.27633,"-6.09475","36.27633"
-3.4907,43.4698,El Brusco,Longitude (X): -3.4907<br>Latitude (Y): 43.4698,"-3.4907","43.4698"
-16.567571,28.029604,El Confital,Longitude (X): -16.567571<br>Latitude (Y): 28.029604,"-16.567571","28.029604"
-15.65382,28.16511,El Frontón,Longitude (X): -15.65382<br>Latitude (Y): 28.16511,"-15.65382","28.16511"
-5.65583,43.54128,El Mongol,Longitude (X): -5.65583<br>Latitude (Y): 43.54128,"-5.65583","43.54128"
-3.78779,43.47746,El Sardinero,Longitude (X): -3.78779<br>Latitude (Y): 43.47746,"-3.78779","43.47746"
-7.2494,43.5728,Foz,Longitude (X): -7.2494<br>Latitude (Y): 43.5728,"-7.2494","43.5728"
-2.20599,43.30366,Gaztetape,Longitude (X): -2.20599<br>Latitude (Y): 43.30366,"-2.20599","43.30366"
-3.01849,43.35559,Getxo,Longitude (X): -3.01849<br>Latitude (Y): 43.35559,"-3.01849","43.35559"
-1.7959,43.37893,Hondarribia,Longitude (X): -1.7959<br>Latitude (Y): 43.37893,"-1.7959","43.37893"
-3.73038,43.47044,Isla de Santa Marina,Longitude (X): -3.73038<br>Latitude (Y): 43.47044,"-3.73038","43.47044"
-3.00297,43.38369,La Salbaje,Longitude (X): -3.00297<br>Latitude (Y): 43.38369,"-3.00297","43.38369"
-3.43339,43.41303,Laredo,Longitude (X): -3.43339<br>Latitude (Y): 43.41303,"-3.43339","43.41303"
-9.12469,42.77205,Lariño,Longitude (X): -9.12469<br>Latitude (Y): 42.77205,"-9.12469","42.77205"
-14.43909,28.0694,Las Salinas,Longitude (X): -14.43909<br>Latitude (Y): 28.0694,"-14.43909","28.0694"
-4.04711,43.43856,Los Locos,Longitude (X): -4.04711<br>Latitude (Y): 43.43856,"-4.04711","43.43856"
-16.5072,28.422808,Los Patos,Longitude (X): -16.5072<br>Latitude (Y): 28.422808,"-16.5072","28.422808"
-6.06486,43.56534,Los Quebrantos,Longitude (X): -6.06486<br>Latitude (Y): 43.56534,"-6.06486","43.56534"
-9.10188,42.75653,Louro,Longitude (X): -9.10188<br>Latitude (Y): 42.75653,"-9.10188","42.75653"
-2.98557,43.39526,Meñakoz,Longitude (X): -2.98557<br>Latitude (Y): 43.39526,"-2.98557","43.39526"
-5.49398,43.54389,Merón,Longitude (X): -5.49398<br>Latitude (Y): 43.54389,"-5.49398","43.54389"
-2.696739,43.407727,Mundaka,Longitude (X): -2.696739<br>Latitude (Y): 43.407727,"-2.696739","43.407727"
-9.2626,43.01001,Nemiña,Longitude (X): -9.2626<br>Latitude (Y): 43.01001,"-9.2626","43.01001"
-2.00061,43.31595,Ondarreta,Longitude (X): -2.00061<br>Latitude (Y): 43.31595,"-2.00061","43.31595"
-2.12727,43.28831,Orio,Longitude (X): -2.12727<br>Latitude (Y): 43.28831,"-2.12727","43.28831"
-2.24279,43.303402,Orrua,Longitude (X): -2.24279<br>Latitude (Y): 43.303402,"-2.24279","43.303402"
-4.3304,43.39006,Oyambre,Longitude (X): -4.3304<br>Latitude (Y): 43.39006,"-4.3304","43.39006"
-8.11105,43.63994,Pantín,Longitude (X): -8.11105<br>Latitude (Y): 43.63994,"-8.11105","43.63994"
-8.82604,42.1542,Patos,Longitude (X): -8.82604<br>Latitude (Y): 42.1542,"-8.82604","42.1542"
-6.9956,43.5525,Peñarronda,Longitude (X): -6.9956<br>Latitude (Y): 43.5525,"-6.9956","43.5525"
-8.15308,43.61472,Playa A Frouxeira,Longitude (X): -8.15308<br>Latitude (Y): 43.61472,"-8.15308","43.61472"
-1.98597,43.31802,Playa de La Concha,Longitude (X): -1.98597<br>Latitude (Y): 43.31802,"-1.98597","43.31802"
-4.02283,43.44243,Playa de Los Caballos,Longitude (X): -4.02283<br>Latitude (Y): 43.44243,"-4.02283","43.44243"
-4.3819,43.39002,Playa de Merón,Longitude (X): -4.3819<br>Latitude (Y): 43.39002,"-4.3819","43.39002"
-9.05063,43.18838,Playa de Traba,Longitude (X): -9.05063<br>Latitude (Y): 43.18838,"-9.05063","43.18838"
-15.433715,28.158475,Punta del Confital,Longitude (X): -15.433715<br>Latitude (Y): 28.158475,"-15.433715","28.158475"
-8.70942,43.28937,Razo,Longitude (X): -8.70942<br>Latitude (Y): 43.28937,"-8.70942","43.28937"
-5.37777,43.53351,Rodiles,Longitude (X): -5.37777<br>Latitude (Y): 43.53351,"-5.37777","43.53351"
-8.504851,43.32932,Sabón,Longitude (X): -8.504851<br>Latitude (Y): 43.32932,"-8.504851","43.32932"
-5.9455,43.58414,Salinas,Longitude (X): -5.9455<br>Latitude (Y): 43.58414,"-5.9455","43.58414"
-8.29028,43.55562,Santa Comba,Longitude (X): -8.29028<br>Latitude (Y): 43.55562,"-8.29028","43.55562"
-3.74437,43.4567,Somo,Longitude (X): -3.74437<br>Latitude (Y): 43.4567,"-3.74437","43.4567"
-2.99587,43.38806,Sopelana,Longitude (X): -2.99587<br>Latitude (Y): 43.38806,"-2.99587","43.38806"
-6.94886,43.56889,Tapia de Casariego,Longitude (X): -6.94886<br>Latitude (Y): 43.56889,"-6.94886","43.56889"
-5.87655,43.62589,Verdicio,Longitude (X): -5.87655<br>Latitude (Y): 43.62589,"-5.87655","43.62589"
-5.72128,43.57006,Xivares,Longitude (X): -5.72128<br>Latitude (Y): 43.57006,"-5.72128","43.57006"
-6.008401,36.184637,Yerbabuena,Longitude (X): -6.008401<br>Latitude (Y): 36.184637,"-6.008401","36.184637"
-2.16385,43.28829,Zarautz,Longitude (X): -2.16385<br>Latitude (Y): 43.28829,"-2.16385","43.28829"
-1.97235,43.32689,Zurriola,Longitude (X): -1.97235<br>Latitude (Y): 43.32689,"-1.97235","43.32689"
-149.58265,-17.74829,Maraa,Longitude (X): -149.58265<br>Latitude (Y): -17.74829,"-149.58265","-17.74829"
-149.50207,-17.76404,Papara,Longitude (X): -149.50207<br>Latitude (Y): -17.76404,"-149.50207","-17.76404"
-149.43005,-17.50868,Papenoo,Longitude (X): -149.43005<br>Latitude (Y): -17.50868,"-149.43005","-17.50868"
-149.6235,-17.6018,Taapuna,Longitude (X): -149.6235<br>Latitude (Y): -17.6018,"-149.6235","-17.6018"
-149.25249,-17.86617,Teahupoo,Longitude (X): -149.25249<br>Latitude (Y): -17.86617,"-149.25249","-17.86617"
-149.31092,-17.8008,Vairao,Longitude (X): -149.31092<br>Latitude (Y): -17.8008,"-149.31092","-17.8008"
-3.8781,50.278456,Bantham,Longitude (X): -3.8781<br>Latitude (Y): 50.278456,"-3.8781","50.278456"
-1.87366,50.71624,Bournemouth,Longitude (X): -1.87366<br>Latitude (Y): 50.71624,"-1.87366","50.71624"
-4.55067,50.831055,Bude,Longitude (X): -4.55067<br>Latitude (Y): 50.831055,"-4.55067","50.831055"
-4.03145,51.57001,Caswell Beach,Longitude (X): -4.03145<br>Latitude (Y): 51.57001,"-4.03145","51.57001"
-4.2374,51.13054,Croyde,Longitude (X): -4.2374<br>Latitude (Y): 51.13054,"-4.2374","51.13054"
-5.09756,50.418769,Fistral Beach,Longitude (X): -5.09756<br>Latitude (Y): 50.418769,"-5.09756","50.418769"
-5.06392,51.66239,Freshwater West,Longitude (X): -5.06392<br>Latitude (Y): 51.66239,"-5.06392","51.66239"
-4.00615,51.567717,Langland Beach,Longitude (X): -4.00615<br>Latitude (Y): 51.567717,"-4.00615","51.567717"
-4.29316,51.59215,Llangennith,Longitude (X): -4.29316<br>Latitude (Y): 51.59215,"-4.29316","51.59215"
-1.42851,55.02679,Long Sands,Longitude (X): -1.42851<br>Latitude (Y): 55.02679,"-1.42851","55.02679"
-5.12687,51.856917,Newgale,Longitude (X): -5.12687<br>Latitude (Y): 51.856917,"-5.12687","51.856917"
-2.3329,55.93142,Pease Bay,Longitude (X): -2.3329<br>Latitude (Y): 55.93142,"-2.3329","55.93142"
-5.1542,50.34735,Perranporth,Longitude (X): -5.1542<br>Latitude (Y): 50.34735,"-5.1542","50.34735"
-4.91507,50.574127,Polzeath,Longitude (X): -4.91507<br>Latitude (Y): 50.574127,"-4.91507","50.574127"
-5.39118,50.2271,Porth Neigwl,Longitude (X): -5.39118<br>Latitude (Y): 50.2271,"-5.39118","50.2271"
-5.313237,50.080749,Porthleven,Longitude (X): -5.313237<br>Latitude (Y): 50.080749,"-5.313237","50.080749"
-4.28039,51.560764,Rhossili Bay,Longitude (X): -4.28039<br>Latitude (Y): 51.560764,"-4.28039","51.560764"
-0.96912,54.586021,Saltburn,Longitude (X): -0.96912<br>Latitude (Y): 54.586021,"-0.96912","54.586021"
-4.22141,51.11713,Saunton Sands,Longitude (X): -4.22141<br>Latitude (Y): 51.11713,"-4.22141","51.11713"
-5.69701,50.07887,Sennen Cove,Longitude (X): -5.69701<br>Latitude (Y): 50.07887,"-5.69701","50.07887"
-5.483007,50.215082,St Ives,Longitude (X): -5.483007<br>Latitude (Y): 50.215082,"-5.483007","50.215082"
-5.10163,50.42503,The Cribbar,Longitude (X): -5.10163<br>Latitude (Y): 50.42503,"-5.10163","50.42503"
-3.51012,58.59929,Thurso East,Longitude (X): -3.51012<br>Latitude (Y): 58.59929,"-3.51012","58.59929"
-5.07332,50.41736,Tolcarne,Longitude (X): -5.07332<br>Latitude (Y): 50.41736,"-5.07332","50.41736"
-4.10094,52.58435,Tywyn,Longitude (X): -4.10094<br>Latitude (Y): 52.58435,"-4.10094","52.58435"
-5.042269,50.444475,Watergate Bay,Longitude (X): -5.042269<br>Latitude (Y): 50.444475,"-5.042269","50.444475"
-4.208628,51.170599,Woolacombe,Longitude (X): -4.208628<br>Latitude (Y): 51.170599,"-4.208628","51.170599"
-74.17294,39.64953,7 - 11,Longitude (X): -74.17294<br>Latitude (Y): 39.64953,"-74.17294","39.64953"
-73.99706,40.22787,8th Street Jetty,Longitude (X): -73.99706<br>Latitude (Y): 40.22787,"-73.99706","40.22787"
-158.05235,21.6641,Backdoor,Longitude (X): -158.05235<br>Latitude (Y): 21.6641,"-158.05235","21.6641"
-158.03766,21.68088,Backyards,Longitude (X): -158.03766<br>Latitude (Y): 21.68088,"-158.03766","21.68088"
-158.051236,21.665091,Pipeline,Longitude (X): -158.051236<br>Latitude (Y): 21.665091,"-158.051236","21.665091"
-80.160698,27.186891,Bathtub Beach,Longitude (X): -80.160698<br>Latitude (Y): 27.186891,"-80.160698","27.186891"
-74.01191,40.18081,Belmar,Longitude (X): -74.01191<br>Latitude (Y): 40.18081,"-74.01191","40.18081"
-117.25176,32.88078,Blacks Beach,Longitude (X): -117.25176<br>Latitude (Y): 32.88078,"-117.25176","32.88078"
-74.93145,38.92975,Broadway Beach,Longitude (X): -74.93145<br>Latitude (Y): 38.92975,"-74.93145","38.92975"
-124.26885,42.04446,Brookings,Longitude (X): -124.26885<br>Latitude (Y): 42.04446,"-124.26885","42.04446"
-123.963952,45.890083,Cannon Beach,Longitude (X): -123.963952<br>Latitude (Y): 45.890083,"-123.963952","45.890083"
-157.826205,21.275711,Canoes,Longitude (X): -157.826205<br>Latitude (Y): 21.275711,"-157.826205","21.275711"
-117.28,33.01497,Cardiff Reef,Longitude (X): -117.28<br>Latitude (Y): 33.01497,"-117.28","33.01497"
-74.07002,39.94215,Casino Pier,Longitude (X): -74.07002<br>Latitude (Y): 39.94215,"-74.07002","39.94215"
-81.002774,29.21847,Daytona Beach,Longitude (X): -81.002774<br>Latitude (Y): 29.21847,"-81.002774","29.21847"
-71.91702,41.03965,Ditch Plains,Longitude (X): -71.91702<br>Latitude (Y): 41.03965,"-71.91702","41.03965"
-118.420169,33.89999,El Porto,Longitude (X): -118.420169<br>Latitude (Y): 33.89999,"-118.420169","33.89999"
-118.67874,34.035426,First Point,Longitude (X): -118.67874<br>Latitude (Y): 34.035426,"-118.67874","34.035426"
-80.895271,29.03857,Flagler Avenue,Longitude (X): -80.895271<br>Latitude (Y): 29.03857,"-80.895271","29.03857"
-81.12584,29.47859,Flagler Beach,Longitude (X): -81.12584<br>Latitude (Y): 29.47859,"-81.12584","29.47859"
-124.13809,44.01504,Florence,Longitude (X): -124.13809<br>Latitude (Y): 44.01504,"-124.13809","44.01504"
-124.42831,42.4179,Gold Beach,Longitude (X): -124.42831<br>Latitude (Y): 42.4179,"-124.42831","42.4179"
-135.76582,57.37403,Good Rats,Longitude (X): -135.76582<br>Latitude (Y): 57.37403,"-135.76582","57.37403"
-158.10832,21.594,Haleiwa,Longitude (X): -158.10832<br>Latitude (Y): 21.594,"-158.10832","21.594"
-159.50282,22.20338,Hanalei Bay,Longitude (X): -159.50282<br>Latitude (Y): 22.20338,"-159.50282","22.20338"
-118.401922,33.86153,Hermosa Beach,Longitude (X): -118.401922<br>Latitude (Y): 33.86153,"-118.401922","33.86153"
-80.11514,27.06652,Hobe Sound Public Beach,Longitude (X): -80.11514<br>Latitude (Y): 27.06652,"-80.11514","27.06652"
-156.638451,21.015732,Honolua Bay,Longitude (X): -156.638451<br>Latitude (Y): 21.015732,"-156.638451","21.015732"
-156.358554,20.933267,Hookipa Beach Park,Longitude (X): -156.358554<br>Latitude (Y): 20.933267,"-156.358554","20.933267"
-118.00166,33.65581,Huntington Beach,Longitude (X): -118.00166<br>Latitude (Y): 33.65581,"-118.00166","33.65581"
-81.388433,30.288738,Jacksonville Beach,Longitude (X): -81.388433<br>Latitude (Y): 30.288738,"-81.388433","30.288738"
-80.05689,26.89293,Juno Pier,Longitude (X): -80.05689<br>Latitude (Y): 26.89293,"-80.05689","26.89293"
-80.071841,26.943364,Jupiter Inlet,Longitude (X): -80.071841<br>Latitude (Y): 26.943364,"-80.071841","26.943364"
-135.84267,57.06227,Kai's Place,Longitude (X): -135.84267<br>Latitude (Y): 57.06227,"-135.84267","57.06227"
-159.351867,21.96034,Kalapaki Beach,Longitude (X): -159.351867<br>Latitude (Y): 21.96034,"-159.351867","21.96034"
-159.30547,22.097535,Kealia Beach,Longitude (X): -159.30547<br>Latitude (Y): 22.097535,"-159.30547","22.097535"
-155.774082,20.241905,Kohala Lighthouse,Longitude (X): -155.774082<br>Latitude (Y): 20.241905,"-155.774082","20.241905"
-80.0,26.612685,Lake Worth,Longitude (X): -80.0<br>Latitude (Y): 26.612685,"-80.0","26.612685"
-118.756124,34.026181,Latigo Point,Longitude (X): -118.756124<br>Latitude (Y): 34.026181,"-118.756124","34.026181"
-124.02095,44.95894,Lincoln City,Longitude (X): -124.02095<br>Latitude (Y): 44.95894,"-124.02095","44.95894"
-158.06206,21.65357,Log Cabins,Longitude (X): -158.06206<br>Latitude (Y): 21.65357,"-158.06206","21.65357"
-73.6526,40.58308,Long Beach,Longitude (X): -73.6526<br>Latitude (Y): 40.58308,"-73.6526","40.58308"
-135.61142,57.01026,Low Island,Longitude (X): -135.61142<br>Latitude (Y): 57.01026,"-135.61142","57.01026"
-117.58782,33.38258,Lower Trestles,Longitude (X): -117.58782<br>Latitude (Y): 33.38258,"-117.58782","33.38258"
-74.03276,40.11296,Manasquan Inlet,Longitude (X): -74.03276<br>Latitude (Y): 40.11296,"-74.03276","40.11296"
-118.41199,33.88413,Manhattan Beach,Longitude (X): -118.41199<br>Latitude (Y): 33.88413,"-118.41199","33.88413"
-122.49874,37.49595,Mavericks,Longitude (X): -122.49874<br>Latitude (Y): 37.49595,"-122.49874","37.49595"
-81.396799,30.381927,Mayport Poles,Longitude (X): -81.396799<br>Latitude (Y): 30.381927,"-81.396799","30.381927"
-80.556589,28.068444,Melbourne Beach,Longitude (X): -80.556589<br>Latitude (Y): 28.068444,"-80.556589","28.068444"
-117.58126,33.38128,Middles,Longitude (X): -117.58126<br>Latitude (Y): 33.38128,"-117.58126","33.38128"
-135.8458,57.04022,Neva Bay,Longitude (X): -135.8458<br>Latitude (Y): 57.04022,"-135.8458","57.04022"
-117.928992,33.607777,Newport Beach,Longitude (X): -117.928992<br>Latitude (Y): 33.607777,"-117.928992","33.607777"
-74.55691,39.28358,North Street,Longitude (X): -74.55691<br>Latitude (Y): 39.28358,"-74.55691","39.28358"
-80.03212,26.79407,Ocean Reef Park,Longitude (X): -80.03212<br>Latitude (Y): 26.79407,"-80.03212","26.79407"
-117.382904,33.192707,Oceanside,Longitude (X): -117.382904<br>Latitude (Y): 33.192707,"-117.382904","33.192707"
-117.38407,33.194188,Oceanside Pier,Longitude (X): -117.38407<br>Latitude (Y): 33.194188,"-117.38407","33.194188"
-158.05742,21.65967,Off-The-Wall,Longitude (X): -158.05742<br>Latitude (Y): 21.65967,"-158.05742","21.65967"
-81.03593,29.28626,Ormond Beach,Longitude (X): -81.03593<br>Latitude (Y): 29.28626,"-81.03593","29.28626"
-123.9681,45.20238,Pacific City,Longitude (X): -123.9681<br>Latitude (Y): 45.20238,"-123.9681","45.20238"
-156.30129,20.94037,Peahi-Jaws,Longitude (X): -156.30129<br>Latitude (Y): 20.94037,"-156.30129","20.94037"
-80.59524,28.20135,Perkins,Longitude (X): -80.59524<br>Latitude (Y): 28.20135,"-80.59524","28.20135"
-80.60459,28.2624,Picnic Tables,Longitude (X): -80.60459<br>Latitude (Y): 28.2624,"-80.60459","28.2624"
-156.044749,19.695327,Pine Trees,Longitude (X): -156.044749<br>Latitude (Y): 19.695327,"-156.044749","19.695327"
-121.968773,36.958202,Pleasure Point,Longitude (X): -121.968773<br>Latitude (Y): 36.958202,"-121.968773","36.958202"
-118.80502,34.00228,Point Dume,Longitude (X): -118.80502<br>Latitude (Y): 34.00228,"-118.80502","34.00228"
-80.91911,29.07893,Ponce Inlet,Longitude (X): -80.91911<br>Latitude (Y): 29.07893,"-80.91911","29.07893"
-135.75364,57.16898,Port Mary,Longitude (X): -135.75364<br>Latitude (Y): 57.16898,"-135.75364","57.16898"
-124.49892,42.74084,Port Orford,Longitude (X): -124.49892<br>Latitude (Y): 42.74084,"-124.49892","42.74084"
-135.84949,57.05013,Red Tree Reef,Longitude (X): -135.84949<br>Latitude (Y): 57.05013,"-135.84949","57.05013"
-119.47666,34.37353,Rincon Point,Longitude (X): -119.47666<br>Latitude (Y): 34.37353,"-119.47666","34.37353"
-124.01286,44.99541,Roads End,Longitude (X): -124.01286<br>Latitude (Y): 44.99541,"-124.01286","44.99541"
-73.81266,40.58393,Rockaway Beach,Longitude (X): -73.81266<br>Latitude (Y): 40.58393,"-73.81266","40.58393"
-123.94564,45.61447,Rockaway-Manzanita,Longitude (X): -123.94564<br>Latitude (Y): 45.61447,"-123.94564","45.61447"
-117.72187,33.47613,Salt Creek Beach,Longitude (X): -117.72187<br>Latitude (Y): 33.47613,"-117.72187","33.47613"
-117.56502,33.3728,San Onofre State Beach,Longitude (X): -117.56502<br>Latitude (Y): 33.3728,"-117.56502","33.3728"
-157.67171,21.28605,Sandy Beach,Longitude (X): -157.67171<br>Latitude (Y): 21.28605,"-157.67171","21.28605"
-135.37222,57.075443,Sandy Beach,Longitude (X): -135.37222<br>Latitude (Y): 57.075443,"-135.37222","57.075443"
-74.0024,40.4779,Sandy Hook,Longitude (X): -74.0024<br>Latitude (Y): 40.4779,"-74.0024","40.4779"
-80.58918,28.17517,Satellite Beach,Longitude (X): -80.58918<br>Latitude (Y): 28.17517,"-80.58918","28.17517"
-117.25433,32.86593,Scripps,Longitude (X): -117.25433<br>Latitude (Y): 32.86593,"-117.25433","32.86593"
-118.10684,33.73915,Seal Beach,Longitude (X): -118.10684<br>Latitude (Y): 33.73915,"-118.10684","33.73915"
-135.8277,57.29903,Sealion Cove,Longitude (X): -135.8277<br>Latitude (Y): 57.29903,"-135.8277","57.29903"
-80.447104,27.85926,Sebastian Inlet,Longitude (X): -80.447104<br>Latitude (Y): 27.85926,"-80.447104","27.85926"
-159.436904,21.874911,Shipwreck Beach,Longitude (X): -159.436904<br>Latitude (Y): 21.874911,"-159.436904","21.874911"
-135.6341,57.01139,Shoals Point,Longitude (X): -135.6341<br>Latitude (Y): 57.01139,"-135.6341","57.01139"
-80.547397,28.047678,Spessard Holland,Longitude (X): -80.547397<br>Latitude (Y): 28.047678,"-80.547397","28.047678"
-74.41742,39.35964,State's Avenue,Longitude (X): -74.41742<br>Latitude (Y): 39.35964,"-74.41742","39.35964"
-122.025992,36.951495,Steamer Lane,Longitude (X): -122.025992<br>Latitude (Y): 36.951495,"-122.025992","36.951495"
-74.91616,38.93035,Stockton,Longitude (X): -74.91616<br>Latitude (Y): 38.93035,"-74.91616","38.93035"
-74.76284,39.04281,Stone Harbor,Longitude (X): -74.76284<br>Latitude (Y): 39.04281,"-74.76284","39.04281"
-80.17431,27.21477,Stuart Public Beach,Longitude (X): -80.17431<br>Latitude (Y): 27.21477,"-80.17431","27.21477"
-74.50677,39.32248,Sumner Avenue,Longitude (X): -74.50677<br>Latitude (Y): 39.32248,"-74.50677","39.32248"
-80.96505,29.1463,Sunglow Pier,Longitude (X): -80.96505<br>Latitude (Y): 29.1463,"-80.96505","29.1463"
-158.044829,21.671238,Sunset Beach,Longitude (X): -158.044829<br>Latitude (Y): 21.671238,"-158.044829","21.671238"
-117.6174,33.416156,T-Street,Longitude (X): -117.6174<br>Latitude (Y): 33.416156,"-117.6174","33.416156"
-80.57892,28.13532,The Radisson,Longitude (X): -80.57892<br>Latitude (Y): 28.13532,"-80.57892","28.13532"
-80.60768,28.30235,The Streets,Longitude (X): -80.60768<br>Latitude (Y): 28.30235,"-80.60768","28.30235"
-135.36715,57.06927,The Wall,Longitude (X): -135.36715<br>Latitude (Y): 57.06927,"-135.36715","57.06927"
-117.88284,33.59497,The Wedge,Longitude (X): -117.88284<br>Latitude (Y): 33.59497,"-117.88284","33.59497"
-118.57958,34.03979,Topanga,Longitude (X): -118.57958<br>Latitude (Y): 34.03979,"-118.57958","34.03979"
-118.58253,34.03865,Topanga Beach,Longitude (X): -118.58253<br>Latitude (Y): 34.03865,"-118.58253","34.03865"
-117.59353,33.38512,Upper Trestles,Longitude (X): -117.59353<br>Latitude (Y): 33.38512,"-117.59353","33.38512"
-118.4744,33.98559,Venice Beach,Longitude (X): -118.4744<br>Latitude (Y): 33.98559,"-118.4744","33.98559"
-74.477,39.33672,Ventnor Pier,Longitude (X): -74.477<br>Latitude (Y): 39.33672,"-74.477","39.33672"
-80.39695,27.76337,Wabasso,Longitude (X): -80.39695<br>Latitude (Y): 27.76337,"-80.39695","27.76337"
-157.82283,21.27078,Waikiki Beach,Longitude (X): -157.82283<br>Latitude (Y): 21.27078,"-157.82283","21.27078"
-158.063385,21.639369,Waimea,Longitude (X): -158.063385<br>Latitude (Y): 21.639369,"-158.063385","21.639369"
-158.045,21.303579,White Plains Beach,Longitude (X): -158.045<br>Latitude (Y): 21.303579,"-158.045","21.303579"
-118.823177,34.016225,Zuma Beach,Longitude (X): -118.823177<br>Latitude (Y): 34.016225,"-118.823177","34.016225"
-9.1008285,54.2128303,Enniscrone,Longitude (X): -9.1008285<br>Latitude (Y): 54.2128303,"-9.1008285","54.2128303"
-9.7766891,51.4687745,Barley Cove,Longitude (X): -9.7766891<br>Latitude (Y): 51.4687745,"-9.7766891","51.4687745"
-9.8953054,53.7356567,Carrownisky,Longitude (X): -9.8953054<br>Latitude (Y): 53.7356567,"-9.8953054","53.7356567"
-9.4933322,52.7599657,Doughmore,Longitude (X): -9.4933322<br>Latitude (Y): 52.7599657,"-9.4933322","52.7599657"
-8.159115,55.1478084,Magheroarty,Longitude (X): -8.159115<br>Latitude (Y): 55.1478084,"-8.159115","55.1478084"
-6.6565438,55.2007883,Portrush,Longitude (X): -6.6565438<br>Latitude (Y): 55.2007883,"-6.6565438","55.2007883"
-7.613948,55.1927926,Portsalon,Longitude (X): -7.613948<br>Latitude (Y): 55.1927926,"-7.613948","55.1927926"
14.4175265,-22.9376218,Skeleton Bay / Donkey Bay,Longitude (X): 14.4175265<br>Latitude (Y): -22.9376218,"14.4175265","-22.9376218"
